{"type":"FeatureCollection","features":[{"type":"Feature","properties":{"name":"Kabupaten Karawang","province":"Jawa Barat","source":"OpenStreetMap relation 16368384"},"geometry":{"type":"Polygon","coordinates":[[[107.0845606,-6.0017316],[107.0846521,-6.0021875],[107.0850489,-6.0026138],[107.0855677,-6.0028398],[107.0865366,-6.0031216],[107.0876505,-6.0034311],[107.088505,-6.0037129],[107.089329,-6.0039094],[107.0899851,-6.0041921],[107.0906717,-6.0045889],[107.0911295,-6.0048435],[107.0916178,-6.0052126],[107.0920755,-6.005667],[107.0925333,-6.0062931],[107.0927409,-6.0067724],[107.0928538,-6.0070331],[107.093136,-6.007745],[107.0931971,-6.0083439],[107.0932276,-6.0090854],[107.0931742,-6.0104258],[107.0931513,-6.0110533],[107.0930674,-6.0118525],[107.0930445,-6.0125086],[107.0930445,-6.0130217],[107.0931589,-6.0135634],[107.0933649,-6.0139615],[107.0935938,-6.014189],[107.0939905,-6.0144155],[107.0945322,-6.0145562],[107.0952723,-6.0145819],[107.0961039,-6.0146072],[107.0966015,-6.0145158],[107.0966074,-6.0145147],[107.0968973,-6.0144618],[107.0980646,-6.0144284],[107.0990107,-6.0143392],[107.0996897,-6.0143654],[107.1003229,-6.0145624],[107.1007196,-6.0149033],[107.101063,-6.0152724],[107.1012918,-6.015671],[107.1016123,-6.0161546],[107.1016962,-6.0167248],[107.1015818,-6.0170105],[107.1012995,-6.0173252],[107.1007578,-6.0176408],[107.1002771,-6.0178711],[107.0996821,-6.0181868],[107.0991633,-6.0184457],[107.0986292,-6.018676],[107.097912,-6.0191066],[107.097233,-6.0195939],[107.0966684,-6.0200388],[107.0950434,-6.0219619],[107.094227,-6.0233133],[107.0939676,-6.0239131],[107.0937998,-6.0244558],[107.0937159,-6.0249121],[107.0935785,-6.0257685],[107.0935785,-6.0262249],[107.093754,-6.02688],[107.0939829,-6.0273068],[107.0943262,-6.0276477],[107.0947229,-6.0278747],[107.0951578,-6.0280154],[107.0957529,-6.0279849],[107.0961267,-6.0278408],[107.0965235,-6.0274684],[107.0970881,-6.0266392],[107.0975992,-6.025924],[107.0980264,-6.025409],[107.0983393,-6.0251229],[107.098591,-6.0250371],[107.0985959,-6.0250353],[107.0986749,-6.0250075],[107.0993311,-6.0249479],[107.0997583,-6.02506],[107.1006204,-6.025399],[107.10083,-6.0255677],[107.1013605,-6.025995],[107.1018488,-6.0266206],[107.102421,-6.0271318],[107.1029932,-6.0276144],[107.1035654,-6.027983],[107.104191,-6.0282943],[107.1051676,-6.0286901],[107.1056177,-6.0288022],[107.1065333,-6.0288274],[107.1076166,-6.0287659],[107.1084406,-6.0285919],[107.1089823,-6.0284755],[107.1097223,-6.0284441],[107.1102411,-6.0284708],[107.1106989,-6.0285828],[107.111355,-6.0288084],[107.1117823,-6.0291779],[107.1121256,-6.0297468],[107.1123011,-6.0304592],[107.112446,-6.0312569],[107.1125299,-6.0319412],[107.1125376,-6.0328825],[107.1125376,-6.0337951],[107.1126291,-6.0347359],[107.1126596,-6.0355628],[107.1127817,-6.0363324],[107.1129267,-6.037216],[107.1130106,-6.0379288],[107.1130258,-6.0379655],[107.113026,-6.0379661],[107.113125,-6.0383847],[107.113331,-6.0387547],[107.1137049,-6.0390952],[107.114216,-6.0394356],[107.1148416,-6.0395758],[107.115509,-6.039573],[107.1158716,-6.0395715],[107.1167261,-6.0394542],[107.1176645,-6.0392797],[107.1182062,-6.0391634],[107.1186643,-6.0391902],[107.1191523,-6.0395019],[107.1194651,-6.0403564],[107.1195261,-6.0410121],[107.1197321,-6.0419524],[107.1198771,-6.0430357],[107.120022,-6.0438621],[107.1201975,-6.0446599],[107.1204569,-6.045315],[107.1207392,-6.0458844],[107.1211435,-6.0464814],[107.1217157,-6.0469925],[107.1221125,-6.0471909],[107.1227686,-6.0472739],[107.1234247,-6.0470998],[107.1239969,-6.0466983],[107.1245386,-6.0462687],[107.1250345,-6.0460374],[107.1255457,-6.0459917],[107.126568,-6.0460174],[107.1272687,-6.0463614],[107.1277015,-6.0469673],[107.1276914,-6.0475091],[107.1272507,-6.0480525],[107.1266138,-6.0487198],[107.1259395,-6.0492518],[107.12513,-6.0498213],[107.1246281,-6.0504143],[107.1243602,-6.0511048],[107.1243629,-6.0517942],[107.1249322,-6.052703],[107.1260565,-6.054016],[107.1266364,-6.0544938],[107.1277684,-6.0546371],[107.1286166,-6.0545353],[107.1290952,-6.0542503],[107.1301985,-6.0533349],[107.1307017,-6.0530744],[107.1313403,-6.0528379],[107.1320288,-6.0527983],[107.1327663,-6.0526723],[107.1332326,-6.0524242],[107.1338325,-6.0517201],[107.1346877,-6.050264],[107.1356193,-6.0494724],[107.1359392,-6.0495081],[107.1363093,-6.0498021],[107.1367175,-6.0504161],[107.1369666,-6.051203],[107.1370059,-6.0518184],[107.1370093,-6.0526802],[107.1371844,-6.0534305],[107.1371627,-6.054157],[107.137103,-6.0546251],[107.1369819,-6.0551057],[107.1367992,-6.0555373],[107.1365665,-6.0557968],[107.136173,-6.0558106],[107.1357545,-6.0557138],[107.1354706,-6.0554564],[107.1350752,-6.0550024],[107.1345085,-6.0547338],[107.1339175,-6.0545637],[107.1334379,-6.0545902],[107.1328973,-6.0547155],[107.1326153,-6.0549505],[107.1321291,-6.0564175],[107.131045,-6.0590687],[107.1304717,-6.0602898],[107.1302908,-6.0611893],[107.1304282,-6.0617304],[107.1308977,-6.0622826],[107.1334114,-6.0634916],[107.1341862,-6.0635008],[107.1348002,-6.0632399],[107.1357809,-6.0624481],[107.1363321,-6.0618549],[107.1368696,-6.0609295],[107.1372222,-6.0599062],[107.1378321,-6.0586234],[107.1379535,-6.0582167],[107.1384063,-6.0576485],[107.1388104,-6.0572037],[107.1396086,-6.0568928],[107.1402111,-6.0568781],[107.1406057,-6.0571351],[107.1409148,-6.0575402],[107.1409538,-6.0580694],[107.1406156,-6.0596343],[107.1402936,-6.0621963],[107.1404226,-6.0637224],[107.1407584,-6.0646691],[107.1419493,-6.0672621],[107.142472,-6.0688236],[107.1430563,-6.0703848],[107.1433528,-6.0707284],[107.1439073,-6.0710093],[107.144646,-6.0711788],[107.145372,-6.0712744],[107.1461599,-6.0714805],[107.1469483,-6.0717975],[107.1480205,-6.0723596],[107.1492388,-6.0725271],[107.1501249,-6.0726836],[107.151072,-6.0726922],[107.1517236,-6.0726526],[107.1524856,-6.0725142],[107.1534056,-6.0719073],[107.1536746,-6.0714999],[107.1540908,-6.0710058],[107.1550558,-6.0693522],[107.1554723,-6.068932],[107.1562566,-6.0682271],[107.1566858,-6.0679176],[107.1573354,-6.0673364],[107.1578266,-6.0671498],[107.158171,-6.0671607],[107.1587739,-6.0672322],[107.1596977,-6.0675978],[107.1609669,-6.0682083],[107.1625833,-6.0695069],[107.1643977,-6.071137],[107.1662115,-6.0726194],[107.1694038,-6.0743548],[107.1718323,-6.0757608],[107.1732029,-6.0771096],[107.1739469,-6.0786209],[107.1743317,-6.0795057],[107.1747159,-6.0802428],[107.1753088,-6.0808806],[107.1758637,-6.0812354],[107.1767505,-6.0815519],[107.1777957,-6.0814985],[107.1784714,-6.0813111],[107.1792679,-6.0805938],[107.1801251,-6.0796547],[107.1804789,-6.0789516],[107.1809195,-6.0784204],[107.1814696,-6.0775933],[107.1830022,-6.0764053],[107.1835056,-6.0762063],[107.1841325,-6.0761299],[107.1848211,-6.0760901],[107.1851659,-6.0761996],[107.1856711,-6.0764314],[107.1862262,-6.0768478],[107.186794,-6.0773502],[107.1876465,-6.0783316],[107.1880539,-6.0786993],[107.1883508,-6.079129],[107.1884517,-6.0797565],[107.188418,-6.0805322],[107.1881989,-6.0816137],[107.1868996,-6.0847268],[107.1867714,-6.0854496],[107.1868177,-6.0860841],[107.1871717,-6.0871332],[107.187657,-6.0881818],[107.1885573,-6.0891193],[107.1895439,-6.0897937],[107.1914925,-6.0904424],[107.1951913,-6.0913466],[107.1987592,-6.0923169],[107.2000508,-6.0927056],[107.2021313,-6.0935288],[107.203271,-6.0941807],[107.2067578,-6.0967052],[107.2099152,-6.0988809],[107.2119968,-6.0999666],[107.2159612,-6.1016355],[107.2171009,-6.1022874],[107.2189411,-6.1031553],[107.2203429,-6.1037404],[107.221328,-6.1040209],[107.222356,-6.1041261],[107.2235804,-6.1040991],[107.2249349,-6.1038309],[107.2258742,-6.1036081],[107.2270754,-6.1032968],[107.2278175,-6.1029654],[107.2285821,-6.102809],[107.2302874,-6.1027801],[107.2314473,-6.1030379],[107.2324318,-6.103187],[107.2334607,-6.1034892],[107.2346658,-6.1040969],[107.2353664,-6.1043129],[107.2364603,-6.1044834],[107.2374442,-6.1044793],[107.238536,-6.1041246],[107.2395179,-6.1036391],[107.2427008,-6.1013935],[107.2434864,-6.10104],[107.2442509,-6.1008618],[107.2455195,-6.1009659],[107.2460884,-6.101073],[107.2465482,-6.1012242],[107.2471626,-6.1017469],[107.247778,-6.1025103],[107.2479551,-6.1030349],[107.2479712,-6.1069085],[107.2481147,-6.1098406],[107.2482069,-6.1109782],[107.2481239,-6.112051],[107.2476514,-6.1140883],[107.247634,-6.1151607],[107.2478772,-6.1157944],[107.2483819,-6.11623],[107.2497389,-6.1165745],[107.2507006,-6.1164829],[107.2517272,-6.1162379],[107.2536252,-6.1152232],[107.25524,-6.1144504],[107.2561995,-6.1138336],[107.2591466,-6.1127269],[107.2603687,-6.1121747],[107.2619176,-6.1113365],[107.2629657,-6.1110038],[107.2638185,-6.1110221],[107.2647817,-6.1113026],[107.2653951,-6.1115845],[107.2682908,-6.1138702],[107.2689502,-6.1146772],[107.2691946,-6.1156172],[107.2692202,-6.1164925],[107.269093,-6.1174341],[107.2690314,-6.1183754],[107.2691677,-6.1196004],[107.2699213,-6.1220046],[107.2701672,-6.1232948],[107.270259,-6.124323],[107.2701311,-6.1250895],[107.2698952,-6.1261847],[107.2699015,-6.1276729],[107.2701473,-6.1289193],[107.2704566,-6.129684],[107.2711803,-6.1301843],[107.2722314,-6.1305519],[107.2732368,-6.13046],[107.2740876,-6.1299968],[107.2748721,-6.1293807],[107.2765927,-6.1277758],[107.2778794,-6.1270044],[107.2790163,-6.1269777],[107.2802856,-6.1272568],[107.2809437,-6.1277573],[107.2814285,-6.1286307],[107.28141,-6.1294405],[107.2805851,-6.1308446],[107.2800845,-6.131372],[107.2797801,-6.1317891],[107.2794981,-6.1323155],[107.2793919,-6.1330382],[107.2794602,-6.1336726],[107.2799437,-6.1342614],[107.2804478,-6.1345438],[107.2811915,-6.1346063],[107.2830085,-6.1351237],[107.2836669,-6.1356899],[107.2841298,-6.1365634],[107.2840667,-6.1371545],[107.2838073,-6.1378559],[107.2833305,-6.1388428],[107.2823958,-6.1401599],[107.2821142,-6.1407739],[107.2813601,-6.1434033],[107.281019,-6.1454619],[107.2811323,-6.1463806],[107.2813974,-6.1470141],[107.2819029,-6.1476247],[107.2825832,-6.1482127],[107.2831093,-6.1485169],[107.2846196,-6.1488825],[107.2854065,-6.1488134],[107.2860832,-6.1485479],[107.2865183,-6.1480427],[107.2868433,-6.147341],[107.287035,-6.1461365],[107.2874221,-6.1446248],[107.2887462,-6.1423431],[107.2897489,-6.1416166],[107.2905556,-6.1410879],[107.2918671,-6.1409729],[107.2924394,-6.1414566],[107.2925073,-6.1424145],[107.2922498,-6.1435537],[107.2913811,-6.1449361],[107.2896457,-6.1481606],[107.2891281,-6.149848],[107.2892008,-6.1515109],[107.2893586,-6.1526045],[107.2894061,-6.1535015],[107.2893873,-6.1542019],[107.2892377,-6.1550123],[107.2890001,-6.1557136],[107.2882552,-6.1564515],[107.287352,-6.1567022],[107.2865308,-6.156884],[107.2856266,-6.1569015],[107.2847769,-6.1568366],[107.2833245,-6.156788],[107.2813677,-6.1573449],[107.2805203,-6.1578284],[107.2794172,-6.1593689],[107.2788189,-6.160441],[107.2785622,-6.1612785],[107.2787177,-6.162416],[107.2791765,-6.1639635],[107.2795374,-6.1650589],[107.279433,-6.1662935],[107.2793833,-6.1674729],[107.2791303,-6.169188],[107.2791615,-6.1700792],[107.2794278,-6.1714904],[107.2801717,-6.1724334],[107.2815461,-6.1734422],[107.2831119,-6.1743405],[107.2855432,-6.1758109],[107.2864785,-6.1766571],[107.2868805,-6.1777386],[107.2869382,-6.178424],[107.2866963,-6.1795083],[107.2862097,-6.1810461],[107.2860078,-6.1818971],[107.2859283,-6.1825282],[107.2859183,-6.1833921],[107.2861533,-6.183871],[107.2866084,-6.1845547],[107.2872134,-6.1850732],[107.2880789,-6.1856042],[107.2898777,-6.1865152],[107.2908676,-6.1873062],[107.2915443,-6.1885511],[107.2922778,-6.1902619],[107.2922958,-6.1912628],[107.2921408,-6.19343],[107.2920327,-6.193787],[107.2919398,-6.1944867],[107.2915733,-6.1952836],[107.2908795,-6.1964384],[107.290486,-6.1973314],[107.2903254,-6.1982096],[107.2903443,-6.1994162],[107.2903883,-6.2000742],[107.2905414,-6.2006357],[107.2909959,-6.2011823],[107.2917093,-6.2013986],[107.2927364,-6.2012844],[107.2936542,-6.2012393],[107.2945714,-6.2010434],[107.2955171,-6.2011078],[107.2962314,-6.2015298],[107.2965911,-6.2023373],[107.2966219,-6.2031187],[107.2959152,-6.2044518],[107.2946052,-6.2056779],[107.2939519,-6.2066954],[107.2937765,-6.2073269],[107.2935617,-6.2083425],[107.2934284,-6.2092207],[107.2934708,-6.212676],[107.2928385,-6.2153663],[107.2923613,-6.2159168],[107.2918701,-6.2163851],[107.2910092,-6.2169374],[107.2903665,-6.2172281],[107.2897509,-6.2174639],[107.2891483,-6.2175213],[107.2875431,-6.2170347],[107.2861565,-6.2164099],[107.2849906,-6.2161407],[107.2796435,-6.2153548],[107.276273,-6.2154104],[107.2738482,-6.2155031],[107.2727945,-6.2158231],[107.2722492,-6.2164699],[107.2720208,-6.2175267],[107.2720235,-6.2181712],[107.2723734,-6.21987],[107.2730634,-6.2210051],[107.2745066,-6.222041],[107.2752492,-6.2226686],[107.2761282,-6.2231447],[107.2772526,-6.2233319],[107.2781017,-6.2232322],[107.279225,-6.2231725],[107.2806791,-6.2235639],[107.2825197,-6.2245981],[107.2833991,-6.2251702],[107.2837455,-6.2260737],[107.2833544,-6.2275151],[107.2826331,-6.2286426],[107.2813756,-6.2293748],[107.2806097,-6.2297072],[107.279174,-6.2304128],[107.2783949,-6.2308549],[107.2770834,-6.2317656],[107.2762639,-6.2323862],[107.2751041,-6.2335293],[107.2748033,-6.2336814],[107.2744061,-6.2337243],[107.2738026,-6.2335898],[107.2729381,-6.2332918],[107.2724848,-6.2330332],[107.271935,-6.232638],[107.2715636,-6.2323105],[107.2709313,-6.2318333],[107.2704229,-6.2315201],[107.2699566,-6.2314124],[107.2693276,-6.2317168],[107.2690961,-6.2320606],[107.2691953,-6.2328143],[107.2696367,-6.233498],[107.2720345,-6.2366552],[107.272422,-6.2375311],[107.2736379,-6.2398707],[107.2743142,-6.2410059],[107.2747464,-6.242718],[107.2753531,-6.2467605],[107.2755209,-6.2475414],[107.2757985,-6.2483766],[107.2777236,-6.2530716],[107.2779474,-6.2541401],[107.2775395,-6.2548686],[107.2752856,-6.2565102],[107.2746427,-6.2567872],[107.2739594,-6.2572015],[107.2734279,-6.2578894],[107.2732952,-6.258891],[107.2737238,-6.2597667],[107.2743316,-6.2608748],[107.2758746,-6.2627878],[107.2761237,-6.2633489],[107.2762641,-6.2641299],[107.2765286,-6.2650886],[107.2766699,-6.2660753],[107.2764128,-6.2668168],[107.2759771,-6.2674632],[107.2700398,-6.2712164],[107.2671711,-6.2733165],[107.2663524,-6.2741222],[107.2660463,-6.2746583],[107.2660012,-6.2761086],[107.2656953,-6.276655],[107.2649491,-6.2776044],[107.2648895,-6.278088],[107.2652728,-6.2787754],[107.2657262,-6.2790511],[107.2663028,-6.2792954],[107.267321,-6.2794658],[107.2676608,-6.279598],[107.2677948,-6.2797003],[107.2679717,-6.2801932],[107.2678619,-6.2809547],[107.2674442,-6.2818101],[107.2672208,-6.2824384],[107.2671409,-6.2829632],[107.2672777,-6.2837031],[107.2674339,-6.2841755],[107.2670975,-6.2848043],[107.2669133,-6.2850005],[107.2667697,-6.2850628],[107.2665643,-6.2850945],[107.2663587,-6.2850852],[107.2661113,-6.2849217],[107.2655535,-6.2842659],[107.2652636,-6.2837838],[107.2650429,-6.2826535],[107.2649746,-6.2811214],[107.2648702,-6.2807517],[107.2646738,-6.2804851],[107.2642406,-6.2801476],[107.2638291,-6.2800466],[107.2634386,-6.2800585],[107.2629052,-6.2803077],[107.2621792,-6.2811644],[107.2619655,-6.281659],[107.2619156,-6.2820088],[107.2619993,-6.2823581],[107.2621239,-6.2826353],[107.2628048,-6.2832391],[107.2634243,-6.2838843],[107.2642719,-6.2850119],[107.2644484,-6.2854122],[107.2643988,-6.2858238],[107.2641236,-6.2863598],[107.2638776,-6.2865151],[107.2635286,-6.2866195],[107.2633125,-6.286569],[107.2629213,-6.2864164],[107.2624781,-6.2861201],[107.2619842,-6.2859885],[107.2614601,-6.2860114],[107.2610497,-6.2861777],[107.2606507,-6.2866114],[107.2598636,-6.2876021],[107.2592902,-6.2881085],[107.2575779,-6.2890723],[107.2557311,-6.2898207],[107.2555095,-6.289947],[107.255153,-6.2901501],[107.2548579,-6.2905874],[107.2549011,-6.2910653],[107.2549034,-6.2915955],[107.2551252,-6.2921979],[107.2555312,-6.2931103],[107.2555881,-6.2936037],[107.2556086,-6.2941155],[107.2555365,-6.2943535],[107.2552639,-6.2947021],[107.2549364,-6.2950143],[107.2545531,-6.2951074],[107.2542789,-6.2950903],[107.2538765,-6.2950006],[107.2533758,-6.2947635],[107.2525155,-6.2937089],[107.2519851,-6.2933264],[107.2508961,-6.2927538],[107.2503764,-6.2926406],[107.2498091,-6.2926527],[107.2493097,-6.2927992],[107.2487725,-6.2930709],[107.2483315,-6.2933902],[107.2476715,-6.294182],[107.2474902,-6.2945003],[107.2473867,-6.2950491],[107.2473703,-6.2957034],[107.2474493,-6.2961745],[107.247828,-6.2970484],[107.2480131,-6.297596],[107.2479568,-6.2979233],[107.2478142,-6.2983088],[107.2476233,-6.2986175],[107.2472408,-6.2991098],[107.2463296,-6.2996429],[107.2460511,-6.299721],[107.245628,-6.2997229],[107.2452432,-6.2996764],[107.2445213,-6.2994967],[107.2440292,-6.2991044],[107.2436612,-6.2984998],[107.2434285,-6.298039],[107.2432157,-6.2977513],[107.24307,-6.2974152],[107.2428095,-6.2972143],[107.2425874,-6.2969843],[107.2419229,-6.2967563],[107.2415576,-6.2967579],[107.2409041,-6.2968569],[107.240347,-6.296994],[107.2399145,-6.2970247],[107.2392888,-6.2968542],[107.2389419,-6.2966921],[107.2383056,-6.29631],[107.237834,-6.2961966],[107.2374974,-6.2961692],[107.2371899,-6.2962186],[107.2368539,-6.2963451],[107.2365279,-6.2965582],[107.2361355,-6.2969928],[107.2359732,-6.2972629],[107.2359165,-6.297494],[107.2359286,-6.2980905],[107.2361905,-6.2986089],[107.236674,-6.2992514],[107.2368967,-6.2996065],[107.2373846,-6.3012688],[107.2377814,-6.3018732],[107.2387171,-6.3025812],[107.2390361,-6.302955],[107.2392395,-6.3033101],[107.2394531,-6.3037806],[107.2395032,-6.3042518],[107.2393903,-6.3048296],[107.2391046,-6.3054754],[107.2382923,-6.3066431],[107.2379185,-6.3069237],[107.2374677,-6.3072046],[107.2369591,-6.3074473],[107.2363828,-6.3075749],[107.2358822,-6.3074423],[107.2355738,-6.3072801],[107.2354095,-6.307098],[107.2353308,-6.306675],[107.2353292,-6.3063094],[107.2354137,-6.3058376],[107.2356125,-6.305096],[107.2356964,-6.3044798],[107.235674,-6.3037487],[107.2354364,-6.3021527],[107.2352999,-6.3017107],[107.2352978,-6.30122],[107.2351422,-6.300807],[107.2347734,-6.30001],[107.2346273,-6.2995777],[107.2343563,-6.2991555],[107.234096,-6.2990027],[107.2334127,-6.2988709],[107.2331918,-6.2989104],[107.2327981,-6.2990467],[107.2325105,-6.2992404],[107.2323864,-6.2994526],[107.2322818,-6.2997224],[107.2323323,-6.3003091],[107.2324588,-6.3006549],[107.2329424,-6.3013167],[107.2335831,-6.3027283],[107.2335939,-6.3029976],[107.2335277,-6.3032577],[107.2334132,-6.3034698],[107.2331261,-6.3037982],[107.232819,-6.3039438],[107.2321274,-6.3041103],[107.2316653,-6.303968],[107.2311533,-6.3034218],[107.2309116,-6.3031053],[107.2306307,-6.3026351],[107.2304569,-6.3024722],[107.2300426,-6.3022624],[107.2298117,-6.3022441],[107.2295714,-6.3022644],[107.2291877,-6.3024681],[107.228977,-6.302671],[107.2281848,-6.3040598],[107.2279362,-6.3043784],[107.2276103,-6.3046299],[107.2272938,-6.3048237],[107.2268425,-6.3049699],[107.2256126,-6.3051676],[107.2251222,-6.3051793],[107.2245552,-6.3052395],[107.2243247,-6.3053174],[107.2241137,-6.3054338],[107.2238651,-6.305762],[107.2237027,-6.3060321],[107.2236091,-6.306629],[107.22363,-6.3070041],[107.2237957,-6.3075422],[107.2241625,-6.3078677],[107.2245,-6.3080972],[107.2251451,-6.3082965],[107.227011,-6.3083847],[107.2273771,-6.3085563],[107.227503,-6.3087771],[107.2276684,-6.3092286],[107.2276596,-6.3094114],[107.2275452,-6.3096524],[107.2274304,-6.3097876],[107.2270659,-6.3099912],[107.2269123,-6.31004],[107.2267297,-6.3100792],[107.2261814,-6.3100335],[107.2255749,-6.3098533],[107.2252576,-6.3098546],[107.2247866,-6.3099144],[107.2245468,-6.3100405],[107.2243649,-6.310224],[107.2242804,-6.3107151],[107.224437,-6.3113494],[107.2246699,-6.3118583],[107.2248442,-6.312127],[107.2250188,-6.3124822],[107.2250491,-6.3128381],[107.2250123,-6.3132134],[107.2248798,-6.3137239],[107.2244706,-6.3147166],[107.224119,-6.3156995],[107.2241011,-6.3160075],[107.2238719,-6.316374],[107.223594,-6.3165965],[107.2231717,-6.3167907],[107.2228836,-6.3168786],[107.2225567,-6.31688],[107.2219692,-6.3166708],[107.2217665,-6.3164985],[107.2216308,-6.3162297],[107.2215812,-6.3158835],[107.2215675,-6.3149215],[107.2215179,-6.3145657],[107.2214204,-6.3142582],[107.2211585,-6.3137206],[107.2208301,-6.3133852],[107.2205025,-6.3132327],[107.2202904,-6.3130893],[107.2200497,-6.3130326],[107.2195979,-6.3130634],[107.2192234,-6.3131708],[107.2181869,-6.3136563],[107.2177655,-6.3140429],[107.2175459,-6.3144191],[107.2174036,-6.3148623],[107.2172523,-6.3154787],[107.2174413,-6.3169595],[107.2175486,-6.317315],[107.2177617,-6.3176797],[107.2182732,-6.3181105],[107.2186589,-6.3183494],[107.2190153,-6.3185114],[107.2196215,-6.3186051],[107.2202749,-6.3184868],[107.2207548,-6.3182635],[107.2211581,-6.3181463],[107.2216386,-6.3180577],[107.2227833,-6.3181682],[107.2240074,-6.3188365],[107.2243743,-6.3191909],[107.2247421,-6.3197569],[107.2248203,-6.3200356],[107.2248217,-6.320382],[107.2246792,-6.3207771],[107.2245266,-6.321076],[107.224268,-6.3213176],[107.2240087,-6.3213957],[107.2231812,-6.3212645],[107.222921,-6.3211406],[107.2219387,-6.3207888],[107.2211592,-6.3206574],[107.2203993,-6.3206029],[107.2197264,-6.3206347],[107.219371,-6.320742],[107.2190159,-6.3208879],[107.2185937,-6.3211109],[107.2184022,-6.3212946],[107.2180676,-6.3217674],[107.2180112,-6.3220755],[107.2180328,-6.3226142],[107.2182372,-6.3232099],[107.2187697,-6.3240446],[107.2190321,-6.3246978],[107.2191492,-6.3250917],[107.2192096,-6.3257361],[107.2190097,-6.326218],[107.2185881,-6.3265662],[107.2180798,-6.3268666],[107.2170619,-6.327198],[107.2163611,-6.3274801],[107.2159967,-6.3277221],[107.2156704,-6.3278775],[107.214953,-6.3287657],[107.2147647,-6.3296997],[107.2147275,-6.3300078],[107.2147288,-6.3303156],[107.2148655,-6.3308057],[107.2150488,-6.3309397],[107.2156166,-6.3310527],[107.2173078,-6.3307568],[107.2182214,-6.3307625],[107.2185106,-6.3309249],[107.2190606,-6.3313651],[107.2193023,-6.3316816],[107.2194573,-6.3319407],[107.2195456,-6.3323636],[107.2195114,-6.3333451],[107.2194744,-6.3336916],[107.2195232,-6.3338742],[107.2200573,-6.3342431],[107.2203621,-6.3343902],[107.2206348,-6.3344515],[107.22092,-6.3346018],[107.2211648,-6.334655],[107.2222685,-6.334596],[107.2226899,-6.3346484],[107.2230201,-6.3347465],[107.2233641,-6.3349077],[107.2237038,-6.3351579],[107.2238864,-6.3355104],[107.2240421,-6.3359427],[107.2240047,-6.336193],[107.2238906,-6.3364917],[107.2234897,-6.3371862],[107.2233662,-6.3375427],[107.2233292,-6.3378796],[107.2233417,-6.3385626],[107.2237587,-6.3393786],[107.2245515,-6.3403566],[107.2253823,-6.3412574],[107.2255855,-6.3415355],[107.2256839,-6.3420739],[107.2256987,-6.3432861],[107.2259593,-6.3457383],[107.2260875,-6.3464786],[107.2266022,-6.3476502],[107.2267094,-6.3479864],[107.2267204,-6.3483135],[107.2266458,-6.3488526],[107.226504,-6.3494209],[107.2260831,-6.3499422],[107.2253162,-6.3505035],[107.2244816,-6.3509593],[107.2239361,-6.3515774],[107.2234275,-6.3518394],[107.2228027,-6.3519094],[107.2225046,-6.3518914],[107.2217058,-6.3517506],[107.2207717,-6.3514563],[107.2186432,-6.3506861],[107.2162347,-6.3496766],[107.2157726,-6.3495631],[107.2154553,-6.3495645],[107.2152438,-6.3495943],[107.2150716,-6.349797],[107.2148061,-6.3506641],[107.2149045,-6.3511928],[107.2148888,-6.3520203],[107.2147367,-6.3524347],[107.2141908,-6.3529566],[107.2138271,-6.3533526],[107.2133881,-6.3541626],[107.2131786,-6.3546446],[107.2130951,-6.3553473],[107.2131007,-6.3566461],[107.2130067,-6.3571565],[107.2130383,-6.3578009],[107.2132526,-6.3584446],[107.214836,-6.3599099],[107.2150875,-6.3602552],[107.2152627,-6.3607355],[107.2153706,-6.3612353],[107.215315,-6.3617262],[107.2151819,-6.3620732],[107.2147908,-6.3628157],[107.2142741,-6.3634433],[107.2134391,-6.3638317],[107.2130158,-6.363795],[107.2127749,-6.363671],[107.2124564,-6.363403],[107.2122623,-6.3629997],[107.212009,-6.3622407],[107.2118283,-6.361986],[107.2116224,-6.3617902],[107.2114006,-6.3616372],[107.2110731,-6.3615135],[107.2106014,-6.3613905],[107.2100623,-6.3612773],[107.2093889,-6.3612128],[107.2085704,-6.3609758],[107.2082916,-6.360977],[107.208013,-6.3610552],[107.2077058,-6.3611719],[107.2075335,-6.3613555],[107.2073327,-6.3616353],[107.2072664,-6.3618665],[107.2072866,-6.362107],[107.2073838,-6.3623471],[107.2075867,-6.3625579],[107.2079048,-6.3627297],[107.20855,-6.3629482],[107.2091658,-6.363013],[107.2095993,-6.3631939],[107.2099271,-6.3633945],[107.2101398,-6.3636534],[107.2104989,-6.3644119],[107.2105869,-6.3647579],[107.2105886,-6.3651428],[107.2103198,-6.3661268],[107.2101849,-6.3665029],[107.2099809,-6.3666744],[107.2096404,-6.3668466],[107.2083023,-6.3671596],[107.2076641,-6.3675378],[107.2066087,-6.3681057],[107.2060395,-6.3686714],[107.2054625,-6.3693993],[107.205005,-6.3701353],[107.2048787,-6.3705284],[107.2048466,-6.3710151],[107.204934,-6.3715012],[107.2051671,-6.3721488],[107.2054678,-6.372634],[107.20558,-6.3729238],[107.2056066,-6.3731797],[107.2055142,-6.3735129],[107.2052608,-6.3741115],[107.2047192,-6.3751294],[107.2047126,-6.3755818],[107.2049962,-6.3760756],[107.2054334,-6.3765603],[107.20569,-6.3767128],[107.2062792,-6.3768468],[107.2065699,-6.3769821],[107.2068101,-6.3773054],[107.2072327,-6.378379],[107.2076181,-6.3787102],[107.2083795,-6.3792105],[107.2086874,-6.3793799],[107.2091657,-6.3795144],[107.2096779,-6.379589],[107.2102921,-6.3795779],[107.2109741,-6.3794725],[107.2113661,-6.3793513],[107.2116457,-6.3789149],[107.2117536,-6.378206],[107.2118021,-6.3775742],[107.2116888,-6.3770199],[107.2115171,-6.3767817],[107.2113877,-6.3764409],[107.211335,-6.3760997],[107.211359,-6.375724],[107.2114428,-6.3753738],[107.2115862,-6.3749891],[107.2117896,-6.3746639],[107.2120958,-6.3744577],[107.212454,-6.3744306],[107.2126677,-6.3745321],[107.2127963,-6.3746766],[107.2129167,-6.3748895],[107.2129091,-6.3751114],[107.2125547,-6.3760262],[107.2125131,-6.3762739],[107.2124899,-6.3768373],[107.2126196,-6.3772378],[107.2128086,-6.3775443],[107.2136917,-6.3785561],[107.2139064,-6.3788966],[107.2141388,-6.3793736],[107.2145244,-6.3797731],[107.2150796,-6.3799158],[107.2156598,-6.3799389],[107.2169744,-6.3801124],[107.2174785,-6.380298],[107.2183494,-6.3804565],[107.2188188,-6.3804971],[107.2190325,-6.3806071],[107.2192981,-6.3808706],[107.2193003,-6.3813741],[107.2186909,-6.3825119],[107.2185565,-6.3829904],[107.2185834,-6.383289],[107.2187119,-6.3834165],[107.2189171,-6.3835265],[107.2192329,-6.3835593],[107.2197446,-6.3835144],[107.2203161,-6.3835034],[107.2207609,-6.3837576],[107.2212322,-6.3842506],[107.2214555,-6.384591],[107.2214719,-6.3864174],[107.2216825,-6.387782],[107.2215672,-6.3887384],[107.2211216,-6.390251],[107.2209729,-6.3918154],[107.2206883,-6.3930798],[107.2203608,-6.3943017],[107.2198634,-6.395678],[107.219918,-6.3964629],[107.2202033,-6.3973493],[107.2218086,-6.3996382],[107.222075,-6.4000809],[107.2222086,-6.4013691],[107.2219968,-6.4023485],[107.2216532,-6.4028828],[107.2213175,-6.403414],[107.2211268,-6.4039028],[107.2209818,-6.4044969],[107.2209666,-6.4048784],[107.2211344,-6.4057472],[107.2213786,-6.4069121],[107.2214396,-6.4075902],[107.2214472,-6.4079716],[107.2213633,-6.4081629],[107.2212107,-6.4083331],[107.220875,-6.408356],[107.2192423,-6.4080446],[107.2180293,-6.4077533],[107.2173045,-6.4076078],[107.2169916,-6.4076731],[107.2167323,-6.4079073],[107.2164652,-6.4082687],[107.2162897,-6.4084389],[107.216038,-6.4085462],[107.2156565,-6.4085691],[107.214741,-6.408488],[107.2142145,-6.4084695],[107.2135966,-6.4086416],[107.2130091,-6.4091318],[107.2126505,-6.4094937],[107.2124827,-6.4098547],[107.2123988,-6.4101698],[107.2123682,-6.4112017],[107.212353,-6.4121955],[107.2122767,-6.4127691],[107.2121317,-6.4133809],[107.2119944,-6.4138591],[107.2119181,-6.4142606],[107.2119028,-6.4146812],[107.2120554,-6.4149668],[107.2125208,-6.4154618],[107.212826,-6.4158809],[107.2129252,-6.4162433],[107.2128489,-6.4165685],[107.212681,-6.4168561],[107.2122156,-6.4171384],[107.2115595,-6.417124],[107.2109844,-6.4170501],[107.2105219,-6.4168842],[107.2091181,-6.4162219],[107.2079127,-6.4153288],[107.207104,-6.4147976],[107.2065928,-6.4145701],[107.2057688,-6.4143636],[107.2043538,-6.4142385],[107.2033238,-6.4140466],[107.2027744,-6.4138853],[107.2023796,-6.4137694],[107.2019945,-6.4138856],[107.2019443,-6.4141771],[107.2018861,-6.4145157],[107.2021007,-6.4153687],[107.2025173,-6.4164037],[107.2030529,-6.417909],[107.2034181,-6.4189975],[107.2037274,-6.4197851],[107.2038173,-6.4199958],[107.2040963,-6.4203583],[107.2048473,-6.4206142],[107.205163,-6.4207907],[107.2055339,-6.420998],[107.2056198,-6.4212325],[107.2054636,-6.421562],[107.2047083,-6.4224823],[107.2040675,-6.4231217],[107.2038173,-6.4234075],[107.2035598,-6.4234928],[107.2031736,-6.4234928],[107.2028288,-6.4231673],[107.2023153,-6.4226825],[107.2018217,-6.42232],[107.2012141,-6.4220898],[107.2001688,-6.4219411],[107.1985895,-6.4218461],[107.1973612,-6.4218261],[107.1969798,-6.4219549],[107.1965983,-6.4222367],[107.1963236,-6.4225438],[107.1962473,-6.4229009],[107.1963007,-6.4232571],[107.1965601,-6.4236343],[107.196703,-6.4238209],[107.1967051,-6.4238236],[107.1971934,-6.4244478],[107.1977045,-6.424856],[107.1983225,-6.4249809],[107.199238,-6.4250348],[107.2001994,-6.4251583],[107.2009699,-6.4253624],[107.2013972,-6.4254086],[107.202244,-6.4254048],[107.2029459,-6.4254496],[107.203335,-6.425576],[107.203747,-6.4259894],[107.2041056,-6.4266102],[107.2043803,-6.427264],[107.2049296,-6.4287942],[107.2057002,-6.4308503],[107.2059748,-6.4316633],[107.2061655,-6.4322288],[107.2064097,-6.4330718],[107.2066767,-6.4340089],[107.206753,-6.4344776],[107.2067148,-6.4347966],[107.2064783,-6.4350975],[107.2062113,-6.4354174],[107.2059901,-6.43555],[107.2057841,-6.4355509],[107.2051661,-6.4354408],[107.2049372,-6.4354231],[107.2046015,-6.4355748],[107.2041285,-6.4357455],[107.2038538,-6.4358218],[107.2036097,-6.4358041],[107.2027018,-6.4354704],[107.2023432,-6.4353216],[107.2020685,-6.435323],[107.2019312,-6.4354174],[107.201916,-6.4356239],[107.2020304,-6.4359982],[107.2022975,-6.4362972],[107.2027094,-6.4367645],[107.2035792,-6.4375484],[107.2051966,-6.4391358],[107.206425,-6.4403312],[107.2068445,-6.4407241],[107.2070735,-6.4409693],[107.2074854,-6.441644],[107.2083552,-6.44326],[107.2092402,-6.444794],[107.2095911,-6.4453662],[107.2098353,-6.4456523],[107.2102091,-6.4460814],[107.2106058,-6.4466331],[107.2108729,-6.4472263],[107.2114527,-6.4483311],[107.2117426,-6.4491909],[107.2118037,-6.4495189],[107.2117503,-6.449939],[107.2117197,-6.4508512],[107.211674,-6.451299],[107.2115589,-6.4517969],[107.2114727,-6.4521155],[107.2112825,-6.452285],[107.2111048,-6.4524701],[107.2107022,-6.4523528],[107.2102147,-6.4521363],[107.2092555,-6.4514582],[107.2089197,-6.4512279],[107.2088511,-6.4510458],[107.2086832,-6.4503172],[107.208401,-6.4497216],[107.2081034,-6.449292],[107.2079203,-6.4491933],[107.2076151,-6.449178],[107.2072413,-6.4492958],[107.2064631,-6.4497798],[107.2059672,-6.4501631],[107.2054865,-6.4507949],[107.2053568,-6.4512103],[107.2053263,-6.4515088],[107.2054102,-6.4518397],[107.2056086,-6.4521043],[107.2062418,-6.4525488],[107.2079661,-6.4531381],[107.209492,-6.4536121],[107.2105753,-6.4540384],[107.2113383,-6.4543336],[107.2118037,-6.4544976],[107.2123682,-6.4546607],[107.2126887,-6.4548748],[107.2130549,-6.455271],[107.213566,-6.4557994],[107.2140315,-6.4562934],[107.2145732,-6.4569538],[107.2153285,-6.4579261],[107.2155726,-6.4583113],[107.215893,-6.4591386],[107.2162058,-6.4598181],[107.2166436,-6.4603298],[107.216773,-6.4606476],[107.2166092,-6.4609926],[107.2163008,-6.4611049],[107.2159993,-6.4612843],[107.2157916,-6.4616101],[107.2155227,-6.4623855],[107.2156565,-6.4628022],[107.216023,-6.463638],[107.215884,-6.4641128],[107.2155388,-6.464333],[107.2151427,-6.4643],[107.214853,-6.4641475],[107.2144051,-6.4641843],[107.2140467,-6.464196],[107.2137854,-6.464272],[107.2135136,-6.4646928],[107.2132649,-6.4650583],[107.2126963,-6.4653826],[107.212226,-6.4652541],[107.2116204,-6.4652925],[107.2111802,-6.4653417],[107.2108147,-6.4657545],[107.2105898,-6.4663491],[107.2105176,-6.4668993],[107.2105122,-6.4673932],[107.210453,-6.4679314],[107.2101024,-6.4682998],[107.2099048,-6.4684292],[107.209644,-6.4686262],[107.2091076,-6.4687336],[107.2085838,-6.4686143],[107.2078514,-6.4678684],[107.2075157,-6.4675556],[107.2069969,-6.46693],[107.2065239,-6.4663821],[107.2058754,-6.4657255],[107.2053871,-6.4652563],[107.204792,-6.4647723],[107.204174,-6.4641624],[107.203701,-6.4637719],[107.2032737,-6.4632712],[107.2030677,-6.4630366],[107.2024803,-6.4621177],[107.2022361,-6.4617196],[107.2019539,-6.4613062],[107.201786,-6.4610768],[107.2015266,-6.4608937],[107.2005729,-6.4606367],[107.1997566,-6.4604865],[107.1991996,-6.4604584],[107.1990471,-6.4605666],[107.198925,-6.4607816],[107.1989097,-6.4611812],[107.1990547,-6.4618255],[107.1991005,-6.4622551],[107.1991081,-6.462946],[107.1990928,-6.4632994],[107.1990013,-6.4634996],[107.1988487,-6.4636231],[107.1985588,-6.4637009],[107.1983833,-6.4636403],[107.1982612,-6.463472],[107.1982307,-6.4630881],[107.1983375,-6.4622894],[107.1982841,-6.4617215],[107.1980857,-6.4614611],[107.1974615,-6.4611595],[107.1974601,-6.4611588],[107.1970405,-6.4610205],[107.1965294,-6.4608999],[107.1961479,-6.4608551],[107.195858,-6.4608875],[107.1957283,-6.46098],[107.1956749,-6.4611493],[107.1956596,-6.4613486],[107.1957512,-6.461886],[107.195858,-6.4624534],[107.1958198,-6.4628988],[107.1956977,-6.4632832],[107.1954536,-6.4636222],[107.1952095,-6.4637767],[107.1949119,-6.4638549],[107.1945304,-6.4638563],[107.194149,-6.4637047],[107.1934318,-6.4632941],[107.1930046,-6.4630767],[107.1925544,-6.4630061],[107.1917686,-6.4630638],[107.1908378,-6.4634329],[107.1901436,-6.4636546],[107.1896934,-6.4638387],[107.1895256,-6.4640399],[107.1894188,-6.464387],[107.1894035,-6.4648977],[107.1894493,-6.4663015],[107.1894493,-6.4675594],[107.1894035,-6.4688545],[107.1894567,-6.4693678],[107.189465,-6.469739],[107.1891916,-6.4700947],[107.188648,-6.4703847],[107.1879893,-6.4706041],[107.1874772,-6.4709489],[107.186936,-6.471246],[107.1864219,-6.4715012],[107.1859628,-6.4716768],[107.1853891,-6.4717698],[107.184915,-6.4717337],[107.1843552,-6.4716939],[107.1840784,-6.4712923],[107.1838593,-6.4707113],[107.1841321,-6.4701873],[107.1844673,-6.4699508],[107.1846733,-6.4697119],[107.1851081,-6.4694715],[107.185482,-6.4692317],[107.1857719,-6.4690095],[107.1859626,-6.4687534],[107.1860237,-6.4682599],[107.185955,-6.4674435],[107.1858329,-6.4671718],[107.1855964,-6.4669686],[107.1852531,-6.4669362],[107.1847572,-6.4669724],[107.1838417,-6.4672313],[107.182888,-6.4674736],[107.1823463,-6.4677482],[107.1819572,-6.4681411],[107.1817665,-6.4683972],[107.1817805,-6.4685575],[107.1817773,-6.4687503],[107.1817815,-6.4688709],[107.1819503,-6.4691262],[107.1823309,-6.4695905],[107.1825904,-6.4699078],[107.1828193,-6.470213],[107.1830024,-6.4707056],[107.1831474,-6.4711982],[107.1832008,-6.4717937],[107.1831321,-6.4724742],[107.1830177,-6.4731556],[107.1829185,-6.4734278],[107.1828117,-6.4735304],[107.1826286,-6.4735313],[107.1821479,-6.4734655],[107.1812935,-6.4731799],[107.180767,-6.4730287],[107.1801185,-6.4730316],[107.1792717,-6.4732056],[107.1789283,-6.473394],[107.1788444,-6.4736324],[107.1789131,-6.4738537],[107.1790733,-6.474074],[107.179409,-6.4741917],[107.1802101,-6.4741884],[107.1806907,-6.4742714],[107.1809425,-6.4744745],[107.1811332,-6.4747287],[107.18124,-6.4749323],[107.1813011,-6.4752093],[107.1812782,-6.475997],[107.18124,-6.4767848],[107.181118,-6.4774452],[107.1809883,-6.4778715],[107.1808662,-6.4780637],[107.1803932,-6.4783211],[107.179882,-6.4786216],[107.1792946,-6.4791351],[107.1786308,-6.4796062],[107.1784019,-6.4796711],[107.1780815,-6.4796086],[107.1777153,-6.4794398],[107.177288,-6.4790583],[107.1768608,-6.47889],[107.1764106,-6.478828],[107.1756935,-6.4788523],[107.1743278,-6.4791136],[107.1731987,-6.4794379],[107.1723747,-6.4797607],[107.1719017,-6.4800606],[107.1715889,-6.4804664],[107.1714363,-6.4809566],[107.171421,-6.4813615],[107.1715507,-6.4817014],[107.1723666,-6.4816039],[107.1732649,-6.4819846],[107.1739702,-6.4827808],[107.1742355,-6.4831839],[107.1742467,-6.4837259],[107.1739769,-6.4848444],[107.1739503,-6.4858288],[107.173958,-6.4863573],[107.1738588,-6.4877426],[107.1738588,-6.4882404],[107.1740114,-6.4890186],[107.1740787,-6.4892158],[107.1742326,-6.4896666],[107.1743623,-6.4901854],[107.1743852,-6.490553],[107.1742631,-6.4908134],[107.1740032,-6.4909701],[107.1737214,-6.49114],[107.1728517,-6.4914471],[107.1724855,-6.4917947],[107.1719896,-6.4919268],[107.1711656,-6.4919516],[107.1699754,-6.4921085],[107.1697236,-6.4923259],[107.1695024,-6.4926945],[107.1693956,-6.4931928],[107.169388,-6.4937459],[107.1697923,-6.4944202],[107.1702425,-6.4953419],[107.1702882,-6.4957868],[107.1702272,-6.4961006],[107.1700593,-6.4965631],[107.1698457,-6.4967782],[107.1695177,-6.4969279],[107.1691438,-6.4969627],[107.1683504,-6.496636],[107.1677553,-6.4966389],[107.1673051,-6.4967066],[107.1670152,-6.4968893],[107.1666032,-6.4972044],[107.1664201,-6.4975182],[107.1662752,-6.4978487],[107.1661913,-6.4983932],[107.1662294,-6.4988386],[107.1662294,-6.4993001],[107.1661302,-6.4997293],[107.1660081,-6.4999997],[107.1653749,-6.5002753],[107.1650797,-6.5003311],[107.1647722,-6.5006753],[107.1646043,-6.5009452],[107.1643373,-6.5015747],[107.1642381,-6.501979],[107.1642534,-6.5022336],[107.1643602,-6.5024573],[107.1646882,-6.5028149],[107.1650316,-6.5031129],[107.1651384,-6.5033218],[107.1650926,-6.5037109],[107.1649324,-6.5041753],[107.1648332,-6.5045649],[107.1646882,-6.5059272],[107.1645662,-6.5067207],[107.1646348,-6.5073935],[107.1649171,-6.5080654],[107.1652681,-6.5086328],[107.1652833,-6.5088269],[107.1651613,-6.5090219],[107.1650011,-6.5093819],[107.1648714,-6.5099207],[107.1647798,-6.51046],[107.1647493,-6.5108639],[107.1648103,-6.5111328],[107.1648714,-6.5113121],[107.1650392,-6.511491],[107.1654436,-6.5116393],[107.165703,-6.5116679],[107.1659242,-6.5116521],[107.1668169,-6.5113884],[107.167239,-6.511331],[107.167534,-6.511312],[107.167578,-6.511339],[107.167625,-6.511474],[107.167555,-6.51237],[107.167541,-6.513879],[107.167782,-6.514357],[107.167807,-6.514502],[107.167729,-6.51471],[107.167667,-6.514774],[107.1675004,-6.5150834],[107.167437,-6.5150314],[107.167212,-6.515282],[107.16647,-6.515719],[107.166381,-6.515801],[107.166357,-6.515918],[107.166396,-6.516126],[107.1665267,-6.5162855],[107.166746,-6.516396],[107.167162,-6.516521],[107.167602,-6.5166],[107.167942,-6.516626],[107.16816,-6.516688],[107.168348,-6.516832],[107.168541,-6.517238],[107.168601,-6.51787],[107.168548,-6.519615],[107.168691,-6.52003],[107.169034,-6.520843],[107.169144,-6.521583],[107.169594,-6.521853],[107.169706,-6.521997],[107.169741,-6.522087],[107.169556,-6.522269],[107.169326,-6.522441],[107.169239,-6.522559],[107.169234,-6.522677],[107.16929,-6.522821],[107.171246,-6.523174],[107.172014,-6.524708],[107.17222,-6.52515],[107.172483,-6.525827],[107.172447,-6.526622],[107.172499,-6.526758],[107.172658,-6.526884],[107.172835,-6.526964],[107.173739,-6.527213],[107.173934,-6.527393],[107.174009,-6.527583],[107.174061,-6.52808],[107.174905,-6.529089],[107.175161,-6.529458],[107.174947,-6.530372],[107.174921,-6.530779],[107.175018,-6.531131],[107.175366,-6.531753],[107.175316,-6.531853],[107.175149,-6.531998],[107.174547,-6.532317],[107.174414,-6.532535],[107.174515,-6.532742],[107.174705,-6.53295],[107.174884,-6.533048],[107.175163,-6.53311],[107.175477,-6.533118],[107.176452,-6.532897],[107.176543,-6.532978],[107.176511,-6.533132],[107.176531,-6.533538],[107.176371,-6.534226],[107.176147,-6.535963],[107.175979,-6.536244],[107.175941,-6.536397],[107.175967,-6.536623],[107.176146,-6.537246],[107.17616,-6.538213],[107.176287,-6.538376],[107.176441,-6.538456],[107.176874,-6.538545],[107.17703,-6.538653],[107.177213,-6.538869],[107.1774,-6.539202],[107.177953,-6.539977],[107.178116,-6.540347],[107.178133,-6.540582],[107.178075,-6.540908],[107.177871,-6.541596],[107.177357,-6.542818],[107.177369,-6.543162],[107.177549,-6.543893],[107.177694,-6.544155],[107.178082,-6.544334],[107.17816,-6.544487],[107.178285,-6.544993],[107.178231,-6.545183],[107.178042,-6.5455],[107.177882,-6.545682],[107.177794,-6.546026],[107.177807,-6.546342],[107.17791,-6.546568],[107.17826,-6.547072],[107.178861,-6.547793],[107.178882,-6.548118],[107.178442,-6.548608],[107.1782,-6.548817],[107.17812,-6.548989],[107.178082,-6.54927],[107.178129,-6.549387],[107.178663,-6.549999],[107.178744,-6.550288],[107.178786,-6.550632],[107.178565,-6.551184],[107.178582,-6.551708],[107.178687,-6.55197],[107.178981,-6.552385],[107.179195,-6.552555],[107.179693,-6.552824],[107.18004,-6.552895],[107.180667,-6.552947],[107.181117,-6.553071],[107.181272,-6.553188],[107.181337,-6.553351],[107.181366,-6.55354],[107.181308,-6.553676],[107.181277,-6.553866],[107.181265,-6.554228],[107.181331,-6.554372],[107.181522,-6.554534],[107.182502,-6.554638],[107.183857,-6.555129],[107.184153,-6.555336],[107.184337,-6.555552],[107.184406,-6.556094],[107.184476,-6.556266],[107.184617,-6.556491],[107.185297,-6.557365],[107.185434,-6.557708],[107.185539,-6.558367],[107.185513,-6.558521],[107.185061,-6.559029],[107.185059,-6.559237],[107.185177,-6.559653],[107.185412,-6.559977],[107.185535,-6.560356],[107.185723,-6.560617],[107.185964,-6.560842],[107.187145,-6.561606],[107.187647,-6.561739],[107.187837,-6.561684],[107.188331,-6.561402],[107.18879,-6.561309],[107.189148,-6.561371],[107.189435,-6.561487],[107.189587,-6.561613],[107.189686,-6.561802],[107.189833,-6.562326],[107.189881,-6.562904],[107.189925,-6.563076],[107.190165,-6.563455],[107.1902275,-6.5636396],[107.190508,-6.564357],[107.19062,-6.565125],[107.19033,-6.566419],[107.190416,-6.567539],[107.190554,-6.5679],[107.190862,-6.568297],[107.190971,-6.56864],[107.191065,-6.568838],[107.191206,-6.568946],[107.1908723,-6.5692479],[107.1908113,-6.5694868],[107.1907274,-6.5702712],[107.1908494,-6.5708171],[107.1907731,-6.5716983],[107.1908494,-6.5719415],[107.1914827,-6.5725581],[107.1917116,-6.5728251],[107.1918795,-6.5731773],[107.1922685,-6.5740553],[107.1923753,-6.5744435],[107.1925127,-6.5753642],[107.1926347,-6.5764872],[107.1927873,-6.5771514],[107.1931077,-6.5782858],[107.1936799,-6.5786683],[107.194626,-6.5792328],[107.1969987,-6.5807997],[107.1975862,-6.5812641],[107.1982353,-6.5819003],[107.1987459,-6.5823208],[107.1994707,-6.5827409],[107.1999361,-6.5830857],[107.2004396,-6.5835072],[107.2005082,-6.5836088],[107.2006456,-6.583727],[107.2013704,-6.5842658],[107.2022096,-6.5845],[107.2026445,-6.584768],[107.2032701,-6.5853511],[107.2042924,-6.586382],[107.205124,-6.5870253],[107.2060701,-6.5874225],[107.2069475,-6.5878846],[107.2078477,-6.5883032],[107.2103426,-6.5892464],[107.2110445,-6.589472],[107.212761,-6.5902359],[107.2135164,-6.5904977],[107.2141572,-6.5905649],[107.2148973,-6.5906984],[107.2160799,-6.5907995],[107.2168428,-6.5907661],[107.2176439,-6.5906746],[107.2187272,-6.590593],[107.2200166,-6.5906326],[107.2205125,-6.5907489],[107.2214858,-6.58826],[107.2222368,-6.5871302],[107.2242656,-6.5851681],[107.2268287,-6.5832933],[107.2303049,-6.5813962],[107.2326972,-6.5821154],[107.2341349,-6.5826696],[107.2356799,-6.5828614],[107.2371604,-6.5836288],[107.2395208,-6.5838633],[107.2425034,-6.5827762],[107.2483184,-6.5792377],[107.2510865,-6.5753155],[107.2517946,-6.574207],[107.2519662,-6.5735888],[107.2515799,-6.5726557],[107.2517086,-6.5718669],[107.2514407,-6.5706314],[107.2520844,-6.5687768],[107.2531573,-6.5667943],[107.2540371,-6.565025],[107.255582,-6.5625949],[107.2572772,-6.5606124],[107.2586719,-6.5588004],[107.260278,-6.557778],[107.2618477,-6.5570311],[107.263693,-6.5559226],[107.2649805,-6.5551339],[107.2650663,-6.5543451],[107.2649376,-6.5529595],[107.2651307,-6.5516804],[107.2660534,-6.5505506],[107.2663967,-6.5497618],[107.2666327,-6.548163],[107.267255,-6.5462018],[107.2682421,-6.5455836],[107.2692291,-6.5425777],[107.2701303,-6.5417037],[107.2704093,-6.5409363],[107.2706239,-6.5402115],[107.2711388,-6.5395719],[107.2719113,-6.5379304],[107.2721044,-6.536694],[107.272555,-6.5359052],[107.2740142,-6.5357773],[107.2750441,-6.535756],[107.2760526,-6.5357986],[107.276911,-6.5356067],[107.2778336,-6.535223],[107.2790567,-6.5340505],[107.2809353,-6.5325998],[107.2828665,-6.5310649],[107.2831551,-6.5307248],[107.2840467,-6.5298497],[107.2843997,-6.5286356],[107.2845928,-6.5274631],[107.2852151,-6.5259282],[107.2856442,-6.5242866],[107.2859017,-6.5226664],[107.286009,-6.5218137],[107.2859017,-6.5197031],[107.2850863,-6.5176138],[107.2843568,-6.5157164],[107.2845928,-6.5145865],[107.2845928,-6.5136485],[107.2850649,-6.5119003],[107.285494,-6.5114739],[107.2854726,-6.5111755],[107.284507,-6.5104719],[107.2848932,-6.5096831],[107.2853438,-6.5093633],[107.2855584,-6.5088303],[107.2862021,-6.5085105],[107.2859232,-6.5082121],[107.2859438,-6.5078949],[107.2859661,-6.5075512],[107.2860852,-6.5066547],[107.2854296,-6.5051634],[107.285507,-6.504839],[107.2866147,-6.5048513],[107.2874517,-6.5048193],[107.2887277,-6.5043503],[107.2890131,-6.5042893],[107.2892062,-6.5037776],[107.2890345,-6.5033512],[107.2886483,-6.5030741],[107.2890775,-6.5021786],[107.2892062,-6.5016457],[107.2907941,-6.5007076],[107.2915451,-6.4999188],[107.2935621,-6.4992365],[107.2953216,-6.4984903],[107.2962658,-6.4978721],[107.2968237,-6.4974457],[107.2974577,-6.497338],[107.2979824,-6.4965715],[107.2982184,-6.4965076],[107.2989051,-6.496337],[107.2993128,-6.4958467],[107.2998921,-6.4955695],[107.3006335,-6.4955684],[107.3011581,-6.4954842],[107.3015873,-6.4950365],[107.3018233,-6.4943543],[107.301995,-6.4937147],[107.3024456,-6.4931177],[107.3034112,-6.4927126],[107.3040978,-6.4923928],[107.3047416,-6.491604],[107.3059646,-6.4909004],[107.3078529,-6.4903674],[107.3094193,-6.4899623],[107.3125736,-6.4891522],[107.3167149,-6.4880009],[107.3197523,-6.4877013],[107.3213927,-6.4863166],[107.3224441,-6.4859541],[107.3230997,-6.4859531],[107.3244826,-6.4853998],[107.3256628,-6.4854211],[107.3263494,-6.4851653],[107.3275725,-6.4843551],[107.3283021,-6.4842911],[107.3293964,-6.4849094],[107.3302547,-6.4853358],[107.3310272,-6.4855704],[107.3320143,-6.4855917],[107.3335592,-6.4856983],[107.3342362,-6.4857399],[107.3348252,-6.4854851],[107.3353187,-6.4853145],[107.335941,-6.4853358],[107.3362843,-6.4857409],[107.3366062,-6.4857836],[107.3368637,-6.4860821],[107.3374216,-6.4862953],[107.3383014,-6.486743],[107.338988,-6.4873826],[107.3393099,-6.4876598],[107.3399107,-6.487809],[107.3402229,-6.4880425],[107.3408548,-6.4878516],[107.3419277,-6.487873],[107.343022,-6.4879796],[107.3440949,-6.4873826],[107.3448674,-6.487212],[107.3454682,-6.4872334],[107.3462192,-6.4873186],[107.3467342,-6.4872334],[107.3472707,-6.4867217],[107.3481193,-6.4857825],[107.3489229,-6.4854851],[107.3497383,-6.4854424],[107.3504464,-6.4854211],[107.351176,-6.485613],[107.3520343,-6.4862739],[107.3529355,-6.4868496],[107.3545352,-6.4878506],[107.3567335,-6.4894933],[107.3584501,-6.4912415],[107.3612181,-6.4932883],[107.3639218,-6.4953137],[107.3655955,-6.4960812],[107.3666469,-6.4965929],[107.368621,-6.49687],[107.3694364,-6.4967847],[107.3715822,-6.4965289],[107.3735349,-6.4954203],[107.3738782,-6.4951644],[107.374994,-6.4950578],[107.3764531,-6.4966142],[107.3780624,-6.4972538],[107.3798434,-6.4975736],[107.3804013,-6.4977015],[107.3832981,-6.4984903],[107.3859159,-6.4992365],[107.3900512,-6.5003248],[107.3895497,-6.4968626],[107.389497,-6.4966614],[107.3894716,-6.496406],[107.3897686,-6.4937676],[107.3897686,-6.4922325],[107.389727,-6.4917522],[107.388916,-6.4909476],[107.387993,-6.4905509],[107.3869845,-6.4905082],[107.3856649,-6.4902204],[107.3840663,-6.4895488],[107.3830792,-6.4888346],[107.3823497,-6.4880671],[107.3820707,-6.4875234],[107.3818561,-6.4863295],[107.3817274,-6.4827743],[107.3803836,-6.4798035],[107.3781425,-6.4778579],[107.3741497,-6.4756619],[107.3731627,-6.4747877],[107.3724975,-6.4738176],[107.3722637,-6.4730457],[107.3726414,-6.4707174],[107.3727618,-6.4703826],[107.3734997,-6.4683295],[107.3748529,-6.4681338],[107.3765896,-6.4681589],[107.3780963,-6.4678267],[107.3803584,-6.4683859],[107.3822681,-6.4688336],[107.3840706,-6.4690255],[107.3872236,-6.4687288],[107.3891346,-6.4683859],[107.3913662,-6.4677249],[107.3958508,-6.4666375],[107.3966351,-6.4666791],[107.3969023,-6.466467],[107.3974816,-6.4662964],[107.3990695,-6.4660192],[107.3996918,-6.4655928],[107.401108,-6.4657634],[107.4023643,-6.4656983],[107.4051205,-6.4655075],[107.4078671,-6.4648252],[107.4110643,-6.4639937],[107.4133817,-6.4636739],[107.4150554,-6.4635673],[107.4179522,-6.4628637],[107.4188749,-6.4626078],[107.4226515,-6.4614138],[107.4243252,-6.4609874],[107.4275653,-6.460497],[107.4297969,-6.4601559],[107.4318783,-6.459836],[107.4335208,-6.4593659],[107.4350755,-6.4580664],[107.4352433,-6.4565587],[107.4351959,-6.4563407],[107.4351613,-6.4548255],[107.434818,-6.4527999],[107.4350111,-6.4520323],[107.435805,-6.4505185],[107.4366633,-6.448962],[107.436993,-6.4485146],[107.4375431,-6.447768],[107.4383585,-6.4474268],[107.4387876,-6.4473629],[107.439131,-6.447107],[107.4398176,-6.4462754],[107.4402038,-6.4458916],[107.4408476,-6.4458063],[107.4420277,-6.4453799],[107.4424998,-6.4451454],[107.444946,-6.4443351],[107.4462978,-6.4444631],[107.4482719,-6.4442712],[107.449495,-6.4437808],[107.4509016,-6.4440356],[107.4518554,-6.4439727],[107.4529712,-6.4412647],[107.4544088,-6.4397935],[107.45531,-6.4384715],[107.4561898,-6.4378105],[107.4567048,-6.4372135],[107.4572841,-6.4369576],[107.4587122,-6.4369566],[107.4589793,-6.4366165],[107.4590361,-6.43614],[107.4590866,-6.4354864],[107.4593441,-6.4343989],[107.4591724,-6.4338659],[107.4583999,-6.4327784],[107.4585072,-6.4321601],[107.4582497,-6.4317549],[107.4585501,-6.4309873],[107.4598591,-6.4301557],[107.4599664,-6.4296653],[107.4610822,-6.4286845],[107.4611251,-6.4278102],[107.4610392,-6.4268934],[107.4613826,-6.4265309],[107.4625627,-6.4265522],[107.4652235,-6.4271919],[107.4682705,-6.4281301],[107.4708883,-6.4294521],[107.4714677,-6.4299212],[107.4718754,-6.4307315],[107.4724236,-6.4314127],[107.473828,-6.432224],[107.4742572,-6.432288],[107.4745071,-6.4322339],[107.4746569,-6.4321972],[107.4751369,-6.4320108],[107.4760382,-6.4319255],[107.4776046,-6.4320535],[107.4787847,-6.4315417],[107.4792568,-6.4311792],[107.4799515,-6.4303983],[107.4805094,-6.4296734],[107.4808098,-6.4284793],[107.4806596,-6.4273279],[107.4807026,-6.4265176],[107.4829277,-6.4252409],[107.4837281,-6.4247265],[107.4844684,-6.4238522],[107.4854447,-6.4228607],[107.4856164,-6.4224556],[107.4858524,-6.4222956],[107.4871935,-6.4220718],[107.4876227,-6.4218265],[107.4887492,-6.4205578],[107.4898757,-6.4199821],[107.4902298,-6.4196196],[107.4906911,-6.4190119],[107.4912061,-6.418095],[107.491485,-6.4169542],[107.4915709,-6.4163038],[107.4916674,-6.415323],[107.4917747,-6.4150351],[107.4922511,-6.4145154],[107.4929978,-6.413937],[107.4934634,-6.4135771],[107.4945106,-6.4130734],[107.495047,-6.4127215],[107.4957444,-6.4120818],[107.4964528,-6.4114556],[107.4970642,-6.4103519],[107.4978029,-6.4105521],[107.4981432,-6.410706],[107.4987805,-6.4108261],[107.5000083,-6.4084991],[107.5002161,-6.4083964],[107.5003625,-6.4083515],[107.5005397,-6.4083319],[107.5007246,-6.4083163],[107.5008586,-6.4083109],[107.5010575,-6.4083222],[107.5010799,-6.4083233],[107.501101,-6.4083264],[107.5011063,-6.4083001],[107.501124,-6.408286],[107.5011683,-6.4082895],[107.501416,-6.4082948],[107.5016071,-6.4082578],[107.5017186,-6.4082104],[107.5018779,-6.4082016],[107.5019982,-6.4081717],[107.5027313,-6.4082114],[107.5028278,-6.4081878],[107.5028134,-6.4086275],[107.5028509,-6.4087635],[107.502926,-6.4089394],[107.5030467,-6.4090966],[107.503146,-6.4091926],[107.5037307,-6.4095498],[107.5051201,-6.4102801],[107.5053722,-6.4104294],[107.5054553,-6.410488],[107.5062037,-6.4111917],[107.5063593,-6.4113569],[107.5073463,-6.4123405],[107.5079847,-6.4129775],[107.5080625,-6.4131188],[107.5082091,-6.4134822],[107.5086053,-6.4133791],[107.5090544,-6.4135878],[107.509332,-6.4136798],[107.5101564,-6.4140098],[107.5106253,-6.4140888],[107.5110572,-6.4141394],[107.5113755,-6.4141978],[107.5115628,-6.4141945],[107.5118329,-6.414248],[107.5120386,-6.4142729],[107.5122361,-6.4143129],[107.5123691,-6.4143458],[107.5124736,-6.4143628],[107.5125293,-6.4143816],[107.512664,-6.4144271],[107.5127853,-6.4144726],[107.5128211,-6.414486],[107.5129727,-6.4145679],[107.5133008,-6.4146861],[107.5136699,-6.4148368],[107.5141481,-6.4150132],[107.5145022,-6.4152041],[107.5146873,-6.4153265],[107.5148525,-6.4154474],[107.5150196,-6.4155574],[107.5151241,-6.4156215],[107.5161394,-6.4160067],[107.5167195,-6.4162623],[107.5177224,-6.4166806],[107.5181086,-6.4168886],[107.5194843,-6.4175426],[107.5200698,-6.4178607],[107.5209385,-6.4182142],[107.52193,-6.4181739],[107.5220416,-6.4181762],[107.5228355,-6.4181621],[107.5238145,-6.418247],[107.5242594,-6.4182731],[107.5262551,-6.4184977],[107.5262261,-6.4182829],[107.5270254,-6.4182521],[107.5278338,-6.4182252],[107.5286669,-6.4182361],[107.5295037,-6.4182787],[107.5301582,-6.4182521],[107.5307,-6.4180975],[107.5308502,-6.4180015],[107.5311613,-6.4180015],[107.5319537,-6.4160502],[107.5324005,-6.4148084],[107.5340351,-6.4151386],[107.534144,-6.4149523],[107.5348987,-6.4150747],[107.5349416,-6.414984],[107.5349272,-6.4148297],[107.535462,-6.4134647],[107.5355119,-6.4133211],[107.5354046,-6.4130279],[107.5353724,-6.4127453],[107.5354743,-6.4124628],[107.5357801,-6.4114126],[107.5362522,-6.410517],[107.5365365,-6.4103465],[107.5369764,-6.4097067],[107.5370606,-6.4094506],[107.5367725,-6.4093442],[107.5365365,-6.4089124],[107.5367028,-6.4080275],[107.5368423,-6.4070999],[107.5369603,-6.4063429],[107.5370247,-6.4055646],[107.5371266,-6.4049089],[107.5373787,-6.4045837],[107.5376737,-6.4044611],[107.5384087,-6.4043652],[107.5390578,-6.4041946],[107.5394708,-6.40404],[107.5396892,-6.4037305],[107.5397498,-6.4032883],[107.5397551,-6.4030218],[107.5395888,-6.4022275],[107.5391436,-6.4011133],[107.5390363,-6.400175],[107.5391168,-6.3992581],[107.5393421,-6.3983145],[107.5395658,-6.3974027],[107.5397605,-6.3966672],[107.5398608,-6.3960592],[107.5396355,-6.3951743],[107.5391919,-6.3944709],[107.5390953,-6.3939644],[107.53909,-6.393362],[107.5391221,-6.392493],[107.5390079,-6.3919063],[107.5388271,-6.3915814],[107.5382746,-6.3911443],[107.5378561,-6.3907018],[107.5374951,-6.3900725],[107.5372392,-6.3889372],[107.5375826,-6.3879403],[107.5378025,-6.3868687],[107.5383105,-6.386298],[107.5388255,-6.3861701],[107.5390044,-6.3860576],[107.5393512,-6.3858396],[107.539621,-6.3856212],[107.5398286,-6.3853757],[107.540129,-6.3850719],[107.5401869,-6.3850611],[107.540585,-6.3849866],[107.5407448,-6.3849798],[107.5409605,-6.3849706],[107.541151,-6.3850145],[107.5413307,-6.3850559],[107.5416633,-6.3850932],[107.5419529,-6.3850292],[107.5421799,-6.3848482],[107.5424143,-6.3845441],[107.5425607,-6.3842032],[107.5424987,-6.3840159],[107.5424159,-6.383766],[107.5423735,-6.3837214],[107.5421622,-6.3834992],[107.5419706,-6.3831796],[107.5419224,-6.3829663],[107.5421353,-6.3827048],[107.5424143,-6.382385],[107.5425983,-6.3822626],[107.5428381,-6.3822677],[107.5431294,-6.3820334],[107.5435623,-6.3816493],[107.543809,-6.381532],[107.5440343,-6.381548],[107.5442221,-6.3816759],[107.5444115,-6.3819214],[107.5446529,-6.3820387],[107.5448336,-6.3820278],[107.5449999,-6.3819478],[107.5453647,-6.3817399],[107.5457633,-6.381223],[107.5460567,-6.3809829],[107.5464108,-6.3809509],[107.5467058,-6.3807803],[107.5470883,-6.3806153],[107.5473442,-6.3804018],[107.5476768,-6.3801779],[107.5481397,-6.3798476],[107.5483473,-6.3795008],[107.5484938,-6.3792078],[107.5484761,-6.3789144],[107.5483312,-6.3786052],[107.5484455,-6.3783122],[107.5490195,-6.3773473],[107.5490876,-6.3769951],[107.5489911,-6.3766752],[107.5491536,-6.3758065],[107.549336,-6.3751614],[107.5495237,-6.3742978],[107.5496847,-6.37385],[107.5496884,-6.3735991],[107.5496096,-6.3733968],[107.5494272,-6.3732635],[107.5491751,-6.3733222],[107.5489696,-6.3733059],[107.5488103,-6.372901],[107.5486585,-6.3726395],[107.5485528,-6.3724212],[107.5484777,-6.3720213],[107.5486762,-6.3711897],[107.5488154,-6.3709392],[107.5491091,-6.370411],[107.5492931,-6.3698408],[107.5495543,-6.3692328],[107.5497421,-6.3689982],[107.5500478,-6.3689236],[107.5503268,-6.3688863],[107.5506379,-6.3687476],[107.550917,-6.3685146],[107.5510526,-6.3684014],[107.551353,-6.3680868],[107.5516641,-6.3676657],[107.5520826,-6.3670579],[107.5523508,-6.366706],[107.5526442,-6.3664925],[107.5529248,-6.3663542],[107.5531807,-6.3662419],[107.5533593,-6.3661036],[107.5536114,-6.3658957],[107.5537134,-6.3656024],[107.5537117,-6.3653729],[107.5536957,-6.3651597],[107.5534076,-6.3646641],[107.5532198,-6.3641576],[107.5531914,-6.3637628],[107.553311,-6.3635339],[107.5535079,-6.3634803],[107.5536581,-6.3633097],[107.5537777,-6.3630967],[107.5540781,-6.3628834],[107.554341,-6.3627555],[107.5546398,-6.3626593],[107.5548973,-6.3626966],[107.5551242,-6.3628994],[107.5552905,-6.3631287],[107.5552835,-6.3634909],[107.55521,-6.3638324],[107.5551915,-6.3641169],[107.5551816,-6.3642693],[107.5552674,-6.3647225],[107.5553962,-6.365037],[107.5555839,-6.3651383],[107.5558629,-6.365101],[107.5560721,-6.3651543],[107.5563403,-6.365229],[107.5566729,-6.3652503],[107.556984,-6.3651277],[107.5572737,-6.3648504],[107.557499,-6.3646852],[107.5580191,-6.3645839],[107.5583356,-6.3644719],[107.5585413,-6.3642376],[107.5586111,-6.3639391],[107.5586003,-6.3636085],[107.5584214,-6.3632937],[107.558257,-6.3628088],[107.5583536,-6.3623077],[107.5585628,-6.3620997],[107.5588256,-6.3618971],[107.5590115,-6.3619022],[107.5591134,-6.3620568],[107.5592315,-6.3620835],[107.5595337,-6.3619451],[107.5596821,-6.3617956],[107.5596464,-6.3615346],[107.559582,-6.3612787],[107.5593245,-6.3607296],[107.55921,-6.3603188],[107.5592387,-6.3597806],[107.5593245,-6.3593381],[107.5594192,-6.3589433],[107.5596089,-6.358645],[107.5598859,-6.3586394],[107.5602078,-6.3588366],[107.5606423,-6.3591405],[107.5609856,-6.3593431],[107.561186,-6.3593167],[107.5614596,-6.3591355],[107.5617761,-6.3589862],[107.5619888,-6.358842],[107.5623018,-6.3586077],[107.5623823,-6.3583304],[107.5623857,-6.3579676],[107.5623715,-6.35768],[107.5622087,-6.3568907],[107.5621229,-6.3563042],[107.5621175,-6.3558564],[107.5621765,-6.355142],[107.5623053,-6.3548487],[107.562688,-6.3545611],[107.5629241,-6.3544811],[107.5631904,-6.3545982],[107.5634694,-6.3546941],[107.5636464,-6.3546781],[107.563818,-6.3546088],[107.5639594,-6.3544331],[107.5640881,-6.3541079],[107.5641471,-6.3537667],[107.5643081,-6.3534255],[107.5645476,-6.3531853],[107.5649947,-6.3530736],[107.5652986,-6.3530094],[107.5654971,-6.3528601],[107.5656849,-6.3527215],[107.5656438,-6.3525458],[107.5654614,-6.3523219],[107.5653737,-6.3520231],[107.5652039,-6.3515755],[107.5650484,-6.3512929],[107.5648856,-6.3510954],[107.5646871,-6.3510047],[107.5645066,-6.351005],[107.5641936,-6.3509887],[107.5637644,-6.3508608],[107.5631904,-6.3506262],[107.5629329,-6.3504343],[107.5627685,-6.3502319],[107.5627452,-6.3500504],[107.5628042,-6.3498691],[107.5629383,-6.3496825],[107.5632191,-6.3495602],[107.5635624,-6.3493736],[107.5638467,-6.3492083],[107.5640023,-6.349027],[107.5639969,-6.3487444],[107.563954,-6.3485685],[107.5638931,-6.3483283],[107.5639272,-6.3481153],[107.5639862,-6.3478594],[107.5640863,-6.3477205],[107.5642169,-6.3475982],[107.5642311,-6.3473846],[107.5646514,-6.3469744],[107.5650967,-6.3466225],[107.5655526,-6.3464199],[107.5660014,-6.3462863],[107.5662876,-6.346132],[107.5666148,-6.3457801],[107.5667148,-6.3455239],[107.5666952,-6.345151],[107.5666684,-6.3448258],[107.5667382,-6.3444526],[107.5668669,-6.3442873],[107.5671923,-6.3442124],[107.5676053,-6.3439458],[107.5679183,-6.3437061],[107.5683242,-6.3435139],[107.5686264,-6.3433009],[107.5688303,-6.3430663],[107.5689947,-6.3428155],[107.5691414,-6.3424266],[107.5693989,-6.3421866],[107.5698208,-6.3418985],[107.5702089,-6.3414882],[107.5705021,-6.3411894],[107.5706059,-6.3409284],[107.5705737,-6.3407151],[107.5704182,-6.3404539],[107.5701749,-6.3401977],[107.5699549,-6.3400111],[107.5698817,-6.3397341],[107.5698798,-6.3395046],[107.5697905,-6.3392862],[107.569753,-6.3389024],[107.5698637,-6.3385662],[107.5700051,-6.3382199],[107.5703109,-6.3379427],[107.5707167,-6.3376758],[107.5707971,-6.3375799],[107.5706542,-6.3373295],[107.5704128,-6.3370363],[107.570089,-6.3374252],[107.5698208,-6.3378091],[107.5696331,-6.3380224],[107.5694829,-6.3381717],[107.5692683,-6.3384063],[107.5692146,-6.3386622],[107.5691503,-6.3388168],[107.5689483,-6.338913],[107.5687211,-6.3389554],[107.5684226,-6.338881],[107.5682241,-6.3387424],[107.568149,-6.3385825],[107.568233,-6.3384169],[107.5683153,-6.3382146],[107.5682992,-6.337932],[107.5681061,-6.3375748],[107.5679666,-6.3371696],[107.5679505,-6.3367537],[107.5680023,-6.3364016],[107.5680954,-6.3361299],[107.5683456,-6.336023],[107.568546,-6.3360713],[107.5688088,-6.336018],[107.5690483,-6.3359537],[107.5695311,-6.3360124],[107.5698798,-6.336023],[107.5702446,-6.3360017],[107.5703913,-6.3359326],[107.5704772,-6.3357354],[107.5706738,-6.3353086],[107.5708849,-6.334909],[107.5709903,-6.3346581],[107.5709331,-6.3344611],[107.5707293,-6.3343278],[107.5705772,-6.3341729],[107.5705879,-6.3339863],[107.5707078,-6.3337787],[107.5708454,-6.3336451],[107.5711638,-6.3334854],[107.5714731,-6.3333945],[107.5718861,-6.3334638],[107.5722241,-6.3334691],[107.5726498,-6.3333575],[107.5728375,-6.3331762],[107.5729502,-6.3329896],[107.5730038,-6.3327763],[107.5729429,-6.3325788],[107.5727785,-6.3323711],[107.5726479,-6.3322375],[107.5725567,-6.3321735],[107.5724923,-6.3319976],[107.5722509,-6.3318643],[107.5719202,-6.3318433],[107.5717163,-6.3319232],[107.5714248,-6.3319976],[107.5710976,-6.3321949],[107.5709634,-6.3324081],[107.570942,-6.3325681],[107.5709688,-6.33284],[107.5709385,-6.3330162],[107.5708044,-6.3331069],[107.5706577,-6.3330959],[107.570563,-6.3330375],[107.5704914,-6.3329093],[107.5703358,-6.3326961],[107.570309,-6.3325574],[107.5703967,-6.3324297],[107.570504,-6.3323071],[107.5706381,-6.3322325],[107.570681,-6.3320619],[107.5707864,-6.3317843],[107.5709278,-6.3314807],[107.571119,-6.3313898],[107.5713408,-6.3311128],[107.5714784,-6.3307393],[107.5717378,-6.330441],[107.57187,-6.3302808],[107.5720436,-6.3302651],[107.5722348,-6.3303181],[107.5726157,-6.3303448],[107.5729161,-6.3303448],[107.5731326,-6.3302968],[107.573474,-6.3302542],[107.573694,-6.3301262],[107.5738997,-6.3298916],[107.5738549,-6.3296464],[107.5739247,-6.3294704],[107.5741929,-6.3292305],[107.5744289,-6.3290545],[107.5748312,-6.3290119],[107.5752569,-6.3289106],[107.5756592,-6.3286867],[107.576006,-6.3286656],[107.576226,-6.3286016],[107.5764352,-6.328463],[107.5764907,-6.3281801],[107.5764191,-6.3280258],[107.5762708,-6.3279775],[107.576024,-6.3280522],[107.5757486,-6.3279938],[107.5755554,-6.3278552],[107.5754374,-6.3276526],[107.57545,-6.3274337],[107.5756788,-6.327274],[107.5759972,-6.3271991],[107.5761742,-6.3271564],[107.576344,-6.3272527],[107.5766015,-6.3272207],[107.5767785,-6.3271087],[107.5768858,-6.3269328],[107.5768501,-6.3266499],[107.5768,-6.3265169],[107.5768965,-6.3262876],[107.5771023,-6.3259835],[107.5775242,-6.3255092],[107.5777996,-6.325237],[107.5781376,-6.3249651],[107.5783575,-6.3246612],[107.5785024,-6.3244692],[107.5785488,-6.3242402],[107.5785453,-6.3240587],[107.5784648,-6.3238721],[107.578438,-6.3236801],[107.5785112,-6.3235098],[107.5787438,-6.3232003],[107.5789905,-6.322843],[107.5791568,-6.3226084],[107.5792676,-6.3223315],[107.5792462,-6.3221502],[107.579053,-6.3216756],[107.5789852,-6.3214035],[107.578953,-6.3211635],[107.5790174,-6.3208383],[107.5791389,-6.3206413],[107.5791764,-6.3204973],[107.5791711,-6.320396],[107.5792266,-6.3202518],[107.579248,-6.3199905],[107.5792105,-6.3197079],[107.579189,-6.3194733],[107.5791676,-6.3192814],[107.5792158,-6.3191054],[107.5793588,-6.3188978],[107.5795538,-6.3186629],[107.5795914,-6.3183857],[107.5796557,-6.3181777],[107.5797182,-6.3179167],[107.5797826,-6.3177141],[107.5798006,-6.3174792],[107.5797791,-6.3170634],[107.5796968,-6.3164345],[107.5796002,-6.3159119],[107.5796074,-6.3156664],[107.5796879,-6.3153678],[107.5798757,-6.3151812],[107.5801742,-6.3149202],[107.5803566,-6.3147176],[107.5804263,-6.314547],[107.5804639,-6.314403],[107.5804443,-6.3142908],[107.5804228,-6.3142268],[107.5802834,-6.3141522],[107.5800991,-6.3141418],[107.5799435,-6.3140191],[107.5799454,-6.3138429],[107.5799757,-6.3136566],[107.580142,-6.3136352],[107.5803834,-6.3136299],[107.5806302,-6.3136672],[107.5809789,-6.3135926],[107.5813275,-6.3134273],[107.5817586,-6.3133524],[107.5820357,-6.313246],[107.5823414,-6.3130914],[107.582456,-6.3128725],[107.5826759,-6.3125952],[107.582851,-6.3123289],[107.5829388,-6.3121047],[107.5828368,-6.3118381],[107.5827295,-6.3116728],[107.5824487,-6.3115078],[107.5821966,-6.3113905],[107.5821054,-6.3113159],[107.5819713,-6.3111612],[107.5818908,-6.3108573],[107.5816835,-6.3103878],[107.5814099,-6.3096894],[107.581231,-6.3093697],[107.5810486,-6.3092311],[107.580834,-6.3091458],[107.5805945,-6.3091562],[107.5803083,-6.3092257],[107.5800205,-6.3091188],[107.5798416,-6.3089432],[107.5798274,-6.3087669],[107.579881,-6.3085963],[107.5799382,-6.30833],[107.5800366,-6.3080631],[107.5801474,-6.3077915],[107.5803424,-6.3076099],[107.580657,-6.3075409],[107.58097,-6.3073486],[107.581206,-6.3071887],[107.5813938,-6.3069487],[107.5813651,-6.3067677],[107.5810808,-6.3065758],[107.580775,-6.3064158],[107.580319,-6.3063305],[107.5800366,-6.3063889],[107.5797665,-6.3065065],[107.5795412,-6.3066664],[107.5793159,-6.3067837],[107.5790423,-6.3068904],[107.5788135,-6.3068208],[107.5787741,-6.3066824],[107.5789101,-6.3064369],[107.5790978,-6.306085],[107.5792266,-6.3058557],[107.579214,-6.3057092],[107.5791783,-6.3055944],[107.5791818,-6.3054906],[107.579155,-6.30528],[107.5792301,-6.3051067],[107.5793446,-6.3049573],[107.5796136,-6.3045628],[107.579704,-6.3043334],[107.5797906,-6.3041523],[107.5798623,-6.3038909],[107.5799695,-6.3036536],[107.5801179,-6.3033711],[107.5803056,-6.3030859],[107.5803692,-6.3028671],[107.5804228,-6.3026245],[107.5804183,-6.3024034],[107.5803477,-6.3022539],[107.5802968,-6.3019767],[107.5802627,-6.3017449],[107.58026,-6.3013316],[107.5802109,-6.3010329],[107.5801975,-6.3006277],[107.5802252,-6.3004305],[107.5803263,-6.3003291],[107.5804684,-6.3002278],[107.5806704,-6.3002066],[107.5809333,-6.3002572],[107.581349,-6.3002706],[107.5816754,-6.3002758],[107.5820536,-6.3002438],[107.5823414,-6.3001293],[107.5826222,-6.2999052],[107.5828422,-6.2996626],[107.583215,-6.299316],[107.5834376,-6.299156],[107.583789,-6.2990387],[107.5841519,-6.2989002],[107.5844335,-6.2988256],[107.584642,-6.2987108],[107.58486,-6.2985083],[107.5850987,-6.2982551],[107.5852133,-6.2980736],[107.5852508,-6.297895],[107.5852642,-6.2977537],[107.5852704,-6.2975112],[107.5852964,-6.2971912],[107.5854091,-6.2968819],[107.5855164,-6.296554],[107.5856156,-6.2962794],[107.5857524,-6.2959488],[107.5859007,-6.2956557],[107.5860429,-6.2953598],[107.5861367,-6.2950772],[107.5862379,-6.2948131],[107.5862628,-6.2946133],[107.5862191,-6.2943065],[107.5861279,-6.2940639],[107.586059,-6.2938668],[107.5859482,-6.293704],[107.5857425,-6.2936028],[107.5854662,-6.2936348],[107.5851336,-6.2936588],[107.5849056,-6.2935735],[107.5847393,-6.2933922],[107.5846151,-6.2931255],[107.5845964,-6.2928269],[107.5846991,-6.2924911],[107.5846723,-6.2922405],[107.5846347,-6.2920619],[107.5845722,-6.2917765],[107.5846098,-6.2914645],[107.5845829,-6.2911659],[107.5846642,-6.2909501],[107.5848091,-6.2907262],[107.584886,-6.2905234],[107.5849432,-6.2902649],[107.5849432,-6.2901263],[107.5849209,-6.2899342],[107.5847956,-6.2896171],[107.5846741,-6.2893877],[107.5845247,-6.2891292],[107.5843826,-6.2889559],[107.5841358,-6.288708],[107.5839668,-6.288556],[107.5836879,-6.2884174],[107.5835377,-6.2883534],[107.5833464,-6.2883612],[107.5831568,-6.288428],[107.5829288,-6.2885427],[107.5827303,-6.28866],[107.582564,-6.2886946],[107.5823924,-6.2886093],[107.5822556,-6.2884733],[107.5820947,-6.2883294],[107.5820375,-6.2880973],[107.5820544,-6.2878042],[107.5821743,-6.2875961],[107.5822502,-6.2873882],[107.5822736,-6.2871855],[107.5821931,-6.2869642],[107.582177,-6.2867003],[107.5820939,-6.2864523],[107.5819892,-6.2863243],[107.5819544,-6.286279],[107.5817379,-6.2860232],[107.581526,-6.2857806],[107.5813973,-6.2856153],[107.5813007,-6.2854607],[107.5812275,-6.2852233],[107.5810969,-6.2848741],[107.5810263,-6.28469],[107.5809789,-6.2844716],[107.5809708,-6.2842956],[107.5809654,-6.2841703],[107.5809083,-6.2840155],[107.5807608,-6.2838289],[107.5805873,-6.2835864],[107.58048,-6.2833545],[107.5803585,-6.2831757],[107.5802217,-6.2827971],[107.5800446,-6.2825118],[107.5797745,-6.2820667],[107.5796404,-6.2818641],[107.5795036,-6.2816881],[107.5794795,-6.2815308],[107.5793829,-6.2814615],[107.5792963,-6.2813094],[107.5790906,-6.2809363],[107.5789028,-6.2805924],[107.5788143,-6.2803338],[107.5787553,-6.2800991],[107.5787929,-6.2798352],[107.5788867,-6.2795446],[107.5790495,-6.2792032],[107.5791327,-6.2788939],[107.5792024,-6.2786033],[107.5792086,-6.2783822],[107.5791335,-6.2781289],[107.57902,-6.2778115],[107.5789162,-6.2776383],[107.5787786,-6.2773796],[107.5786239,-6.2772491],[107.578538,-6.2771504],[107.5784648,-6.2768997],[107.5784916,-6.2765904],[107.5785541,-6.2763879],[107.5786338,-6.2761318],[107.5786748,-6.275836],[107.578776,-6.2756119],[107.5789262,-6.275316],[107.5790933,-6.2749509],[107.5791863,-6.2746201],[107.5792515,-6.274351],[107.5792373,-6.2740629],[107.5791273,-6.2738043],[107.5790262,-6.2736711],[107.5789128,-6.2733777],[107.5789055,-6.2731432],[107.578961,-6.2729005],[107.5790925,-6.2727592],[107.5792703,-6.272602],[107.5794366,-6.2724553],[107.5796646,-6.272266],[107.5798488,-6.272066],[107.5799374,-6.2718127],[107.5800151,-6.2715647],[107.579991,-6.2712848],[107.5798979,-6.2710263],[107.5797657,-6.2707809],[107.5795814,-6.2705704],[107.5793695,-6.2703118],[107.5791764,-6.2701038],[107.5789779,-6.2699652],[107.5788028,-6.2697304],[107.5786346,-6.2694506],[107.5784898,-6.2692293],[107.5783503,-6.2690587],[107.5783173,-6.2688559],[107.5782725,-6.2686587],[107.5782108,-6.2684988],[107.5781591,-6.268232],[107.5781035,-6.2679095],[107.5781725,-6.2677254],[107.5782591,-6.2676456],[107.578412,-6.2676083],[107.5786472,-6.2675708],[107.5788108,-6.2675575],[107.5789879,-6.2674508],[107.5792166,-6.2673123],[107.5795163,-6.2671815],[107.5797397,-6.267179],[107.5800133,-6.2671497],[107.5802431,-6.2671389],[107.5804719,-6.267099],[107.5807474,-6.2670002],[107.5811229,-6.2668989],[107.5813678,-6.2667951],[107.5815716,-6.2666591],[107.5817218,-6.2665125],[107.5818525,-6.2663497],[107.5819383,-6.2662244],[107.5819686,-6.2660139],[107.5820008,-6.2658379],[107.5819866,-6.2656858],[107.5820759,-6.2654726],[107.5821671,-6.26527],[107.5822797,-6.2650887],[107.582446,-6.2647341],[107.5825211,-6.2644942],[107.5825606,-6.2641927],[107.5826096,-6.2638463],[107.582692,-6.2635102],[107.5826901,-6.2631157],[107.5826974,-6.2629076],[107.5827054,-6.2626703],[107.5826445,-6.2624465],[107.5825131,-6.2621666],[107.5823575,-6.2619879],[107.5821805,-6.2618706],[107.5821126,-6.2617318],[107.5821341,-6.2616039],[107.5821751,-6.26146],[107.5822816,-6.2613692],[107.5824586,-6.2613239],[107.5826813,-6.2612786],[107.5829342,-6.2613267],[107.5830568,-6.2613372],[107.5832472,-6.2612759],[107.5834376,-6.2611453],[107.5836978,-6.2608147],[107.5839078,-6.2605588],[107.5839741,-6.2602841],[107.5840143,-6.2599961],[107.5839722,-6.2597776],[107.5838614,-6.2595429],[107.583704,-6.2593644],[107.5834304,-6.2592311],[107.5831541,-6.2591511],[107.5826847,-6.2590604],[107.5824299,-6.2590418],[107.5822395,-6.2589324],[107.5821456,-6.2587271],[107.5820517,-6.2583645],[107.5820134,-6.2580631],[107.5819624,-6.2578952],[107.5817379,-6.257778],[107.5815233,-6.2576953],[107.5812605,-6.257514],[107.5810379,-6.2573114],[107.5808206,-6.2570128],[107.5806436,-6.2567968],[107.5805443,-6.2566128],[107.5804961,-6.2564529],[107.5805489,-6.2563007],[107.5807018,-6.2562368],[107.5809145,-6.2562449],[107.5812382,-6.2562341],[107.5814501,-6.2562767],[107.5816333,-6.2563195],[107.5817961,-6.2563487],[107.5819981,-6.2563595],[107.5822333,-6.2563194],[107.5822897,-6.2562208],[107.5822897,-6.2560688],[107.5823004,-6.2558315],[107.5823299,-6.2556315],[107.582387,-6.255453],[107.582641,-6.2550343],[107.5827939,-6.254797],[107.583038,-6.2545224],[107.5832775,-6.2543465],[107.5836959,-6.2539039],[107.5839607,-6.2536665],[107.5841948,-6.2535013],[107.5844542,-6.2532746],[107.5847197,-6.2529919],[107.5849397,-6.252848],[107.5851838,-6.2526906],[107.5854474,-6.2525095],[107.5857953,-6.2523627],[107.5860126,-6.2522587],[107.5862896,-6.2521789],[107.5865249,-6.2521041],[107.5870165,-6.2520535],[107.5873169,-6.2519789],[107.5874797,-6.2519068],[107.5876836,-6.2518721],[107.5879607,-6.2518749],[107.5881449,-6.2518588],[107.5884595,-6.2518029],[107.5886848,-6.2517443],[107.5893814,-6.2516588],[107.5898347,-6.2516268],[107.5903416,-6.2515948],[107.5906769,-6.2515522],[107.5910149,-6.2513602],[107.5912329,-6.2511923],[107.5914199,-6.2511869],[107.5917023,-6.2510644],[107.5919402,-6.2509549],[107.5921736,-6.2509096],[107.5924748,-6.2509177],[107.5927261,-6.2510402],[107.5928584,-6.2511843],[107.5930078,-6.2513735],[107.5931722,-6.2515523],[107.5933438,-6.2516269],[107.5936542,-6.2517495],[107.5939339,-6.2518669],[107.5940967,-6.2519228],[107.5943389,-6.2519736],[107.5945991,-6.2519176],[107.5948156,-6.2518188],[107.5949604,-6.2516721],[107.5949907,-6.2514856],[107.5950623,-6.2513069],[107.5952858,-6.2511017],[107.5954969,-6.2510429],[107.5956666,-6.251043],[107.5958724,-6.2511096],[107.5960019,-6.2511897],[107.5961655,-6.251411],[107.5962782,-6.2515923],[107.5963613,-6.2517843],[107.5964418,-6.2520162],[107.5965188,-6.2522081],[107.5966886,-6.2523522],[107.5968361,-6.2524535],[107.5969461,-6.2524855],[107.597125,-6.2525307],[107.5975951,-6.2526268],[107.5979162,-6.2527146],[107.5983462,-6.2527921],[107.598686,-6.2529306],[107.5988343,-6.2530161],[107.5990891,-6.253184],[107.5992975,-6.2531839],[107.5994665,-6.2531119],[107.5996087,-6.2529893],[107.5996578,-6.2528508],[107.5996578,-6.2526161],[107.599588,-6.2524722],[107.5994378,-6.2522349],[107.5992688,-6.2519869],[107.599142,-6.2517735],[107.5991052,-6.2516189],[107.5991071,-6.2514748],[107.5991849,-6.2513095],[107.5993378,-6.2511229],[107.599529,-6.2510084],[107.5997803,-6.2509069],[107.6001432,-6.2507524],[107.6004187,-6.2506083],[107.6006126,-6.2504938],[107.6007164,-6.2503523],[107.6008103,-6.2501577],[107.6009506,-6.2499312],[107.6010007,-6.2497444],[107.6011196,-6.2493953],[107.6012958,-6.2492058],[107.6015023,-6.2490112],[107.6017231,-6.2487527],[107.601833,-6.2485021],[107.6018671,-6.2483313],[107.601833,-6.2480355],[107.601774,-6.2478089],[107.6015962,-6.2473688],[107.6014763,-6.2470863],[107.6012663,-6.2466489],[107.6011241,-6.2463103],[107.6010973,-6.246041],[107.6011188,-6.2457823],[107.6012368,-6.2454277],[107.6013771,-6.2451426],[107.6015667,-6.2448411],[107.6017821,-6.2445373],[107.6019047,-6.2443319],[107.6019913,-6.2441374],[107.6020683,-6.2439266],[107.6021442,-6.2437534],[107.6022702,-6.2435428],[107.6024491,-6.2433294],[107.6026208,-6.2430894],[107.6027066,-6.2428921],[107.6027013,-6.2426761],[107.6025438,-6.2423723],[107.6024921,-6.2422382],[107.6021251,-6.2413002],[107.6020227,-6.2405475],[107.6020739,-6.2396856],[107.602158,-6.2393328],[107.6022349,-6.2391547],[107.6023409,-6.2391037],[107.6024617,-6.2390492],[107.6028458,-6.2390128],[107.6034677,-6.2389074],[107.6041445,-6.2387801],[107.6045834,-6.2385873],[107.6052273,-6.2383364],[107.6057394,-6.2379873],[107.6058163,-6.2378528],[107.6058821,-6.2376855],[107.6059114,-6.2375146],[107.6059297,-6.2373473],[107.6059882,-6.2371945],[107.606087,-6.2370236],[107.6062296,-6.2368418],[107.6063796,-6.2367182],[107.6065699,-6.2366272],[107.6068369,-6.23662],[107.6071186,-6.2366309],[107.6074442,-6.2366709],[107.6075978,-6.2366891],[107.6076966,-6.2366491],[107.6079088,-6.2366054],[107.6081392,-6.2365218],[107.6093355,-6.2361618],[107.6094708,-6.2361545],[107.6096391,-6.2361981],[107.6097489,-6.2362745],[107.6100671,-6.2364309],[107.6104037,-6.2365836],[107.610689,-6.2366091],[107.6108939,-6.2365691],[107.6110841,-6.2364309],[107.6111536,-6.2363072],[107.6112378,-6.2361036],[107.6112634,-6.2359108],[107.6112451,-6.2356599],[107.6113073,-6.2353581],[107.6114682,-6.2351108],[107.6119107,-6.2347402],[107.6122554,-6.2344094],[107.6124574,-6.2339722],[107.6127367,-6.2335882],[107.6129507,-6.2334878],[107.6132181,-6.2336119],[107.6136341,-6.2338659],[107.6138837,-6.233984],[107.6141392,-6.234049],[107.6144126,-6.2340195],[107.6146028,-6.2338836],[107.6147632,-6.2335882],[107.6147692,-6.2333637],[107.6147632,-6.2330624],[107.6148227,-6.2327139],[107.614894,-6.2325071],[107.6153154,-6.2313567],[107.6156315,-6.2307118],[107.6159198,-6.2304693],[107.6164355,-6.2303811],[107.6168791,-6.230348],[107.6172284,-6.2302819],[107.6176498,-6.2299566],[107.6179215,-6.2294936],[107.6180324,-6.2290582],[107.6183374,-6.2284022],[107.6188309,-6.227862],[107.6202559,-6.226688],[107.6215478,-6.2254422],[107.6220691,-6.2246485],[107.623178,-6.2234137],[107.6238767,-6.2229066],[107.6244256,-6.2227683],[107.6247052,-6.2228914],[107.6248291,-6.2229864],[107.6252007,-6.223581],[107.6253088,-6.2239824],[107.6255737,-6.2246011],[107.6259871,-6.2250308],[107.6261632,-6.2251982],[107.6264235,-6.2253335],[107.6271035,-6.2253162],[107.6279234,-6.2248136],[107.6300275,-6.2246574],[107.6317269,-6.2246629],[107.634039,-6.223797],[107.6371194,-6.2215666],[107.6379562,-6.220564],[107.6392899,-6.2181035],[107.6438999,-6.2146478],[107.643814,-6.2145858],[107.6437041,-6.214512],[107.6432329,-6.2142019],[107.6430454,-6.2140033],[107.6421815,-6.2132259],[107.6419401,-6.2130607],[107.6416075,-6.212866],[107.6415699,-6.2127407],[107.6417872,-6.2124754],[107.6417913,-6.2124287],[107.6417805,-6.212378],[107.6414211,-6.2120087],[107.6414043,-6.2120057],[107.6413903,-6.2120087],[107.6412173,-6.2121941],[107.6412022,-6.2121997],[107.6411891,-6.2121968],[107.6406042,-6.211549],[107.6399755,-6.210898],[107.638298,-6.2093736],[107.6368439,-6.2080637],[107.6354974,-6.2066291],[107.6342422,-6.2053278],[107.6335287,-6.2045013],[107.6328796,-6.2037066],[107.6319784,-6.202664],[107.6315212,-6.202103],[107.6311791,-6.201488],[107.6301383,-6.1998935],[107.6294088,-6.1989656],[107.6287115,-6.197963],[107.6280344,-6.196836],[107.6272309,-6.1955257],[107.627091,-6.1951667],[107.6264539,-6.1940597],[107.6265314,-6.1932148],[107.6261734,-6.1924771],[107.6255356,-6.1913728],[107.624959,-6.1906843],[107.6242826,-6.1903825],[107.6240731,-6.1901142],[107.6238898,-6.189856],[107.6236609,-6.1895687],[107.6236394,-6.1894727],[107.6236689,-6.1892487],[107.6237386,-6.189102],[107.6238664,-6.1889571],[107.6239425,-6.1888913],[107.6239666,-6.188814],[107.6239666,-6.1887154],[107.6238674,-6.188438],[107.6237601,-6.1879101],[107.623744,-6.1876648],[107.6237063,-6.1872765],[107.623449,-6.1866248],[107.6233524,-6.1865181],[107.6232263,-6.1864968],[107.6231002,-6.1865448],[107.6230064,-6.1866088],[107.6228729,-6.1868359],[107.622586,-6.1874378],[107.6223552,-6.1879299],[107.6221509,-6.1884434],[107.6217693,-6.1882612],[107.6218721,-6.1877701],[107.6219586,-6.1873877],[107.6220059,-6.1868114],[107.6220193,-6.1866114],[107.6220006,-6.1865048],[107.6219764,-6.1864381],[107.6219147,-6.1863768],[107.6218209,-6.1863314],[107.6216972,-6.1862922],[107.6214005,-6.1862334],[107.6207989,-6.1861661],[107.6201123,-6.1860701],[107.6195236,-6.1859701],[107.6195021,-6.1859501],[107.619494,-6.1859261],[107.6194887,-6.1858754],[107.6195074,-6.1857714],[107.6195115,-6.1857101],[107.6194954,-6.1856755],[107.6194686,-6.1856541],[107.6194069,-6.1856381],[107.6192541,-6.1856194],[107.618975,-6.1856247],[107.6187175,-6.1856114],[107.6184735,-6.1855874],[107.6181757,-6.1855714],[107.6179745,-6.1855607],[107.617583,-6.1854995],[107.6172196,-6.1854408],[107.6171472,-6.1854355],[107.617068,-6.1854221],[107.6166174,-6.1854008],[107.6161266,-6.1853741],[107.6157457,-6.1853288],[107.6156223,-6.1853235],[107.6150832,-6.1852462],[107.6145923,-6.1852115],[107.6131547,-6.1852221],[107.6131064,-6.1852388],[107.6130688,-6.1852648],[107.6127738,-6.1854781],[107.6125377,-6.1855475],[107.6121086,-6.1854942],[107.6117223,-6.1854567],[107.6101901,-6.1853714],[107.6077085,-6.1851605],[107.6065719,-6.1850923],[107.6059798,-6.1850053],[107.6053705,-6.184959],[107.6049616,-6.1849235],[107.6048818,-6.1849165],[107.6047627,-6.184901],[107.6038503,-6.1848668],[107.603563,-6.1848515],[107.6032744,-6.1848311],[107.6029123,-6.1848644],[107.6028257,-6.1848779],[107.602501,-6.1849449],[107.601994,-6.1849955],[107.6014548,-6.1850381],[107.6010472,-6.1850408],[107.6007467,-6.1850461],[107.6004464,-6.1850675],[107.6002988,-6.1850755],[107.6000373,-6.1851248],[107.5997194,-6.1851715],[107.5993118,-6.1852728],[107.5992863,-6.1852788],[107.5992688,-6.1852941],[107.5991885,-6.1856448],[107.5991589,-6.1856781],[107.5991079,-6.1857061],[107.5987163,-6.1857261],[107.5979258,-6.1858399],[107.5959563,-6.1862621],[107.5947332,-6.1864914],[107.5946871,-6.1864986],[107.5936791,-6.1866195],[107.5925553,-6.1867741],[107.5916863,-6.1868461],[107.5907217,-6.1869023],[107.5905933,-6.1869175],[107.5896663,-6.1869502],[107.5888539,-6.1870333],[107.5885185,-6.1870476],[107.5879127,-6.1870949],[107.5868736,-6.1871281],[107.58622,-6.1871861],[107.5855656,-6.1872235],[107.5846972,-6.1873577],[107.5844206,-6.1873445],[107.5843337,-6.1873193],[107.5840787,-6.1872922],[107.5835589,-6.1872479],[107.5829227,-6.1872196],[107.5825688,-6.1872011],[107.5820811,-6.1871839],[107.5816331,-6.1871495],[107.5813534,-6.1871384],[107.5811145,-6.1871212],[107.5808224,-6.1871039],[107.5807457,-6.1871076],[107.5804165,-6.1870879],[107.5802964,-6.1870756],[107.579982,-6.1870584],[107.5797196,-6.1870412],[107.5790669,-6.1869819],[107.5786453,-6.1869181],[107.5782143,-6.1868157],[107.5768456,-6.1865661],[107.5763628,-6.1865075],[107.5759451,-6.1864815],[107.5749564,-6.1862387],[107.5736953,-6.1858384],[107.5721866,-6.1853661],[107.5712639,-6.1850461],[107.5687495,-6.1841147],[107.5674659,-6.1836062],[107.5663635,-6.1832755],[107.566101,-6.1831744],[107.5658512,-6.1829476],[107.5655717,-6.1827958],[107.5640809,-6.1823075],[107.5640032,-6.1823102],[107.5638235,-6.1824142],[107.5637537,-6.1824115],[107.5636732,-6.1823769],[107.5635821,-6.1823369],[107.5632941,-6.1822057],[107.5629464,-6.1820995],[107.5629008,-6.1820702],[107.5627533,-6.1818542],[107.5626218,-6.1817795],[107.5624019,-6.1817076],[107.5621524,-6.1816728],[107.561979,-6.1816832],[107.5617967,-6.181639],[107.5616106,-6.1815956],[107.5613585,-6.1816516],[107.5610916,-6.1816244],[107.560747,-6.1815609],[107.560401,-6.1814622],[107.5595677,-6.1812692],[107.5594783,-6.1812676],[107.5591242,-6.1812836],[107.5588828,-6.1812622],[107.5582781,-6.1811535],[107.5572145,-6.1809396],[107.5567371,-6.1808302],[107.5560023,-6.1806576],[107.5555462,-6.1805529],[107.5549972,-6.180402],[107.554543,-6.1802916],[107.5540709,-6.1801769],[107.5535076,-6.1800009],[107.5531992,-6.1798889],[107.5528629,-6.1797707],[107.5525501,-6.1797023],[107.5519145,-6.1795122],[107.5515361,-6.1793684],[107.5513494,-6.1792643],[107.5510722,-6.1791396],[107.5507396,-6.1789343],[107.5501308,-6.1784889],[107.5499779,-6.1783156],[107.5498518,-6.1781316],[107.5497338,-6.1780836],[107.5496426,-6.1780783],[107.5494817,-6.1780409],[107.5493476,-6.1779636],[107.5491545,-6.1778436],[107.5488017,-6.177525],[107.5487562,-6.1774923],[107.5487025,-6.1774743],[107.5486609,-6.1774743],[107.5486086,-6.1774803],[107.5485671,-6.1774796],[107.5485396,-6.177461],[107.5485389,-6.1774343],[107.5485925,-6.1772396],[107.5485644,-6.1771863],[107.548516,-6.1771449],[107.5481983,-6.177097],[107.5479609,-6.1770876],[107.5479072,-6.1771063],[107.5478053,-6.1772383],[107.5477195,-6.1773783],[107.5476739,-6.1775449],[107.5476015,-6.1776649],[107.5474298,-6.1777503],[107.5471372,-6.1777886],[107.5468129,-6.1777423],[107.5465295,-6.1776762],[107.5463086,-6.1775663],[107.5461495,-6.1774487],[107.5460753,-6.1773396],[107.5461008,-6.177301],[107.5458721,-6.1771371],[107.5455528,-6.176894],[107.5453927,-6.1768223],[107.5453486,-6.1769739],[107.5450901,-6.176914],[107.5448896,-6.1768605],[107.5446222,-6.1767721],[107.5445196,-6.1767663],[107.5444574,-6.176799],[107.5443345,-6.1769503],[107.5442857,-6.1771265],[107.5442192,-6.1772996],[107.5441307,-6.1774383],[107.5440157,-6.1775003],[107.5437286,-6.1775956],[107.5434883,-6.1776122],[107.5429746,-6.1775556],[107.5426099,-6.1774996],[107.5426152,-6.177557],[107.5422437,-6.1774663],[107.5422424,-6.177529],[107.5418977,-6.1774636],[107.541663,-6.177393],[107.5415236,-6.177353],[107.541423,-6.1773223],[107.5413989,-6.1774503],[107.5411119,-6.1774263],[107.5406277,-6.1773236],[107.5398257,-6.1771636],[107.5396246,-6.1771183],[107.5391901,-6.1770543],[107.5387877,-6.1769423],[107.5384341,-6.1769662],[107.5381416,-6.176911],[107.5375761,-6.1768093],[107.5370007,-6.1766192],[107.5363174,-6.176353],[107.5356603,-6.1759689],[107.5345821,-6.1753877],[107.5341314,-6.1752383],[107.5338203,-6.1750676],[107.5334555,-6.174673],[107.5332355,-6.174481],[107.5329351,-6.1743423],[107.532616,-6.174345],[107.5315806,-6.1745076],[107.5312596,-6.1745258],[107.5311738,-6.1745126],[107.5306024,-6.1743778],[107.5297521,-6.1740007],[107.5287237,-6.1735553],[107.5279461,-6.1731194],[107.5275018,-6.172834],[107.5270589,-6.1725581],[107.5261653,-6.1720143],[107.5250131,-6.1713076],[107.5248417,-6.171244],[107.5247551,-6.1712035],[107.524582,-6.1710922],[107.5243943,-6.1709954],[107.5242098,-6.1709005],[107.5236787,-6.170617],[107.5233779,-6.1704468],[107.5229121,-6.1701709],[107.5225379,-6.1698976],[107.5220523,-6.1696311],[107.5211187,-6.1691556],[107.5209774,-6.1691308],[107.5207411,-6.1690771],[107.5204663,-6.169005],[107.5202838,-6.1689382],[107.5201219,-6.1688591],[107.5199325,-6.1687591],[107.519761,-6.1686873],[107.519636,-6.1686294],[107.5193801,-6.1685037],[107.5191375,-6.1683685],[107.5189426,-6.1682742],[107.5187369,-6.1681572],[107.5183821,-6.1679459],[107.5181081,-6.1677686],[107.517909,-6.1676452],[107.5178305,-6.1675841],[107.5176749,-6.1674923],[107.5175595,-6.1674451],[107.5174959,-6.1675958],[107.5172293,-6.1674988],[107.5170431,-6.1674094],[107.5167471,-6.167268],[107.5165745,-6.1671687],[107.5162191,-6.1669911],[107.5160121,-6.1668902],[107.5158472,-6.1667886],[107.5156531,-6.1666621],[107.5154133,-6.1665586],[107.5152306,-6.1664515],[107.5149661,-6.1662657],[107.5147846,-6.1661355],[107.5145738,-6.166029],[107.5143224,-6.1658956],[107.5141347,-6.1657941],[107.5139322,-6.1656943],[107.5136251,-6.1655747],[107.5132929,-6.1654756],[107.5124279,-6.165136],[107.5122929,-6.1651183],[107.5122204,-6.1651423],[107.5120953,-6.1652263],[107.5113553,-6.1649624],[107.5105378,-6.1641477],[107.5104109,-6.1640828],[107.510242,-6.1640301],[107.510073,-6.1640433],[107.5098278,-6.1638951],[107.509513,-6.1637007],[107.5092413,-6.1635624],[107.5091784,-6.1635624],[107.5090856,-6.163704],[107.5090127,-6.1636645],[107.5085787,-6.1634405],[107.5081496,-6.1632164],[107.5076415,-6.1629428],[107.5074869,-6.1628689],[107.5070916,-6.1627182],[107.50683,-6.1626355],[107.5066903,-6.1625882],[107.5063425,-6.1624552],[107.5058933,-6.1623074],[107.5056273,-6.1622173],[107.5053954,-6.1621213],[107.505015,-6.1619971],[107.5047103,-6.1619099],[107.5043287,-6.1617861],[107.5042422,-6.1615956],[107.5042114,-6.1615516],[107.5041769,-6.1615237],[107.5035031,-6.1612267],[107.5032035,-6.1611082],[107.502773,-6.1610269],[107.502154,-6.1610057],[107.5019223,-6.1609531],[107.5014795,-6.1609107],[107.5010801,-6.1608958],[107.5007561,-6.1608391],[107.5004467,-6.1607091],[107.49915,-6.1602675],[107.4978759,-6.159748],[107.496523,-6.1591356],[107.4956774,-6.1586933],[107.4952236,-6.158456],[107.4946948,-6.1581825],[107.4943541,-6.1579987],[107.4937718,-6.1577767],[107.4937384,-6.1577682],[107.4932577,-6.1575864],[107.492937,-6.1574018],[107.4927092,-6.1572956],[107.4924331,-6.1571729],[107.4923105,-6.1571302],[107.4919499,-6.1569093],[107.4916629,-6.1567615],[107.4912011,-6.1564516],[107.491011,-6.156326],[107.4908252,-6.1561712],[107.4906382,-6.1559977],[107.4904304,-6.1558099],[107.4899863,-6.1553641],[107.4899722,-6.1553471],[107.4899558,-6.1553381],[107.489943,-6.1553388],[107.4899353,-6.1553454],[107.4899353,-6.1553568],[107.4899501,-6.1554808],[107.4900616,-6.1559202],[107.4900493,-6.1560594],[107.4900227,-6.1561166],[107.4899943,-6.1561274],[107.4899585,-6.1561295],[107.4895422,-6.1560748],[107.4894127,-6.1560586],[107.4891776,-6.1559848],[107.4890032,-6.1558954],[107.4889717,-6.1558681],[107.4889563,-6.1558341],[107.4889516,-6.1554488],[107.4889389,-6.1554501],[107.4889147,-6.1556821],[107.4889117,-6.1558101],[107.4889194,-6.155893],[107.4889281,-6.1559954],[107.4888968,-6.1561134],[107.4887955,-6.1562513],[107.488628,-6.1563701],[107.4884427,-6.1563848],[107.4883086,-6.1563508],[107.4878056,-6.1562021],[107.4874074,-6.1559822],[107.4870035,-6.1557273],[107.4866247,-6.1554829],[107.4859948,-6.1550654],[107.4854354,-6.1546834],[107.4849451,-6.1543573],[107.4845787,-6.1540903],[107.484208,-6.1538576],[107.4838644,-6.153625],[107.4835735,-6.1534198],[107.4833338,-6.1532435],[107.4829993,-6.1530197],[107.4827654,-6.1528462],[107.4825512,-6.1527051],[107.4823996,-6.1525947],[107.4820605,-6.1523549],[107.4816516,-6.1520661],[107.4808896,-6.1515129],[107.4803151,-6.1510693],[107.4789408,-6.1499046],[107.4782724,-6.149303],[107.4772944,-6.1484587],[107.4771458,-6.1483415],[107.4764988,-6.1478084],[107.4751675,-6.1466852],[107.4736838,-6.1453289],[107.4713645,-6.1453412],[107.4700641,-6.1439053],[107.4685421,-6.1426075],[107.4687088,-6.1411095],[107.4676182,-6.1393712],[107.4660948,-6.1373658],[107.4644425,-6.1343682],[107.4624469,-6.1315947],[107.4610093,-6.1293865],[107.4596352,-6.1265369],[107.4573017,-6.1217407],[107.4551506,-6.117192],[107.45264,-6.1123488],[107.4507303,-6.1085297],[107.4490834,-6.1060804],[107.4468304,-6.0999356],[107.4427051,-6.1006994],[107.4405862,-6.0976953],[107.4382688,-6.0961377],[107.4367882,-6.0924679],[107.4358011,-6.0906329],[107.4347443,-6.0897752],[107.4331833,-6.0895661],[107.4321533,-6.0895661],[107.4301739,-6.086596],[107.427733,-6.0829304],[107.4246431,-6.0772547],[107.4233557,-6.0734994],[107.4197937,-6.0670342],[107.4169828,-6.0622972],[107.4139143,-6.0560879],[107.4135127,-6.0549537],[107.4118758,-6.0500919],[107.4094082,-6.0450988],[107.4071498,-6.0412974],[107.404253,-6.0362614],[107.4015547,-6.0324237],[107.3990817,-6.0294117],[107.3957987,-6.0255066],[107.3941732,-6.0231625],[107.3919202,-6.0194922],[107.3888088,-6.0157151],[107.3851557,-6.0117854],[107.3820711,-6.0083102],[107.3798127,-6.0055542],[107.3770017,-6.001905],[107.3743264,-5.9995344],[107.3716705,-5.9966533],[107.3692674,-5.9938339],[107.3653672,-5.9897666],[107.3615105,-5.985877],[107.3591958,-5.9843857],[107.3556047,-5.9809041],[107.353511,-5.9781989],[107.3519217,-5.9765134],[107.3505498,-5.9752112],[107.348698,-5.9736512],[107.3450995,-5.9709856],[107.340808,-5.9685527],[107.3360444,-5.9670162],[107.3307658,-5.9653515],[107.3227364,-5.962511],[107.3171574,-5.9611024],[107.3120934,-5.9594378],[107.3075057,-5.9577112],[107.3045403,-5.9570902],[107.3014504,-5.9571755],[107.2967726,-5.9564072],[107.2884899,-5.9571329],[107.2850138,-5.9578158],[107.2791344,-5.9579865],[107.2680193,-5.9590536],[107.2644573,-5.9603768],[107.2610241,-5.9617427],[107.2535568,-5.964389],[107.2501279,-5.965693],[107.2469908,-5.9653707],[107.2448879,-5.9669073],[107.2422272,-5.9680171],[107.2388369,-5.9690414],[107.2317172,-5.9714551],[107.2289277,-5.9715832],[107.2248508,-5.9739307],[107.2204262,-5.9744621],[107.2166925,-5.975017],[107.20532,-5.9774072],[107.2005135,-5.9778767],[107.1978098,-5.9789437],[107.1922737,-5.9811205],[107.1883684,-5.9822302],[107.184167,-5.9833634],[107.1822787,-5.9846439],[107.1802574,-5.9847058],[107.1775108,-5.9848765],[107.1703988,-5.9856263],[107.1651512,-5.9859862],[107.1607739,-5.9859008],[107.1565724,-5.9848573],[107.1493155,-5.9827424],[107.1449381,-5.980523],[107.1403891,-5.9785596],[107.134445,-5.975014],[107.1315708,-5.9726855],[107.1289959,-5.9707594],[107.1267391,-5.9687575],[107.1233543,-5.965417],[107.1205662,-5.9624652],[107.1184538,-5.9604064],[107.116268,-5.9581194],[107.1130618,-5.9548337],[107.10959,-5.950696],[107.1066042,-5.9469455],[107.1040002,-5.9432733],[107.1005708,-5.9399874],[107.0993482,-5.9391099],[107.0988018,-5.9390202],[107.098635,-5.9393076],[107.0983929,-5.9400156],[107.0983858,-5.9405389],[107.0983405,-5.9414997],[107.0985221,-5.9429204],[107.0984361,-5.9434795],[107.0980486,-5.9445593],[107.0976214,-5.9455019],[107.0974303,-5.9467476],[107.0971414,-5.948023],[107.0965022,-5.9498586],[107.09629,-5.9506926],[107.0962471,-5.9522906],[107.0964089,-5.9536427],[107.0965013,-5.9547893],[107.0964338,-5.955064],[107.0963464,-5.955231],[107.0962001,-5.9553884],[107.0959066,-5.9554483],[107.0955343,-5.9553713],[107.0947599,-5.9551194],[107.094525,-5.9551595],[107.0942418,-5.9553468],[107.0938435,-5.9561521],[107.0936229,-5.9573587],[107.0936053,-5.9578979],[107.093695,-5.9582995],[107.0938324,-5.9584068],[107.0940383,-5.9584844],[107.0942536,-5.958464],[107.094997,-5.9582651],[107.0952616,-5.9583425],[107.0955169,-5.9585474],[107.0957727,-5.9588601],[107.0959709,-5.9594867],[107.0960704,-5.9599079],[107.0964344,-5.960377],[107.0968171,-5.9605912],[107.0971215,-5.9608253],[107.0972499,-5.9611287],[107.0971443,-5.9616781],[107.0965778,-5.9620429],[107.0962264,-5.9623285],[107.0958949,-5.9626827],[107.0957589,-5.9629675],[107.0955468,-5.9638211],[107.0955377,-5.9640074],[107.0953913,-5.9641256],[107.0952151,-5.9641557],[107.0949994,-5.9640585],[107.0946356,-5.9636579],[107.0944198,-5.9635509],[107.0941068,-5.9636305],[107.0934535,-5.9643486],[107.0929754,-5.964772],[107.0925082,-5.9654893],[107.0915469,-5.9676104],[107.0914106,-5.9678167],[107.0912056,-5.9679743],[107.0907657,-5.9681525],[107.0901195,-5.9681451],[107.0898553,-5.9681951],[107.0896308,-5.9683626],[107.0895637,-5.9687452],[107.0895941,-5.9690196],[107.089715,-5.9693196],[107.0900017,-5.970655],[107.0901704,-5.9712524],[107.090907,-5.9718377],[107.0911135,-5.9720722],[107.0911927,-5.972317],[107.0911155,-5.9726015],[107.0909022,-5.9731513],[107.0906594,-5.9736816],[107.0904158,-5.9739864],[107.0902797,-5.974232],[107.0899673,-5.9744782],[107.0897035,-5.9746361],[107.0889506,-5.9749036],[107.088814,-5.9750119],[107.0885801,-5.9753069],[107.0884836,-5.97567],[107.0885136,-5.9758365],[107.0885827,-5.9759833],[107.0886909,-5.9761201],[107.0889361,-5.9762466],[107.0899838,-5.9762524],[107.0901308,-5.9762911],[107.0901312,-5.9763989],[107.0900632,-5.9765364],[107.0898583,-5.9767332],[107.0896728,-5.9768712],[107.0894285,-5.9769897],[107.088979,-5.9773188],[107.0882798,-5.9781196],[107.0878968,-5.9784146],[107.0865887,-5.9787504],[107.0862258,-5.9789048],[107.0858425,-5.9791255],[107.0857151,-5.9792914],[107.085745,-5.9795642],[107.0858652,-5.9796837],[107.0860924,-5.9796746],[107.0864226,-5.979603],[107.0866328,-5.9794864],[107.0870207,-5.9793815],[107.087533,-5.9794251],[107.087839,-5.9795108],[107.0887501,-5.9801235],[107.0888911,-5.9802884],[107.0889457,-5.9805198],[107.0888598,-5.9807269],[107.088757,-5.9808554],[107.0880394,-5.9811683],[107.0879159,-5.9812763],[107.087768,-5.9814878],[107.0876252,-5.981935],[107.0876881,-5.9821829],[107.0878709,-5.9824799],[107.0881816,-5.9827103],[107.0886075,-5.9828286],[107.0892065,-5.9828512],[107.08962,-5.9829489],[107.0898435,-5.9830803],[107.0899887,-5.9832452],[107.0900264,-5.9833815],[107.0900312,-5.9835593],[107.0899864,-5.9837249],[107.089896,-5.9838452],[107.0897107,-5.9839989],[107.0891704,-5.9842202],[107.0886263,-5.9845117],[107.0884824,-5.984686],[107.0882114,-5.9851171],[107.0879933,-5.9853247],[107.0878282,-5.9853791],[107.0873781,-5.9853973],[107.0866835,-5.9852428],[107.0853353,-5.9848179],[107.0851618,-5.9847978],[107.0850503,-5.9848189],[107.0849846,-5.9849267],[107.0849112,-5.9851627],[107.0849463,-5.9857126],[107.0851465,-5.9862122],[107.0853043,-5.9864391],[107.0855158,-5.9866575],[107.0858508,-5.9867637],[107.0870201,-5.9868503],[107.0872518,-5.9869486],[107.0873224,-5.98706],[107.0873191,-5.9872751],[107.0872412,-5.9874325],[107.0871138,-5.9875943],[107.0865408,-5.9878984],[107.0861496,-5.98821],[107.0859602,-5.9883803],[107.0854875,-5.9890024],[107.085385,-5.9892096],[107.0853987,-5.9895528],[107.085516,-5.9899866],[107.0855208,-5.9901395],[107.0854264,-5.9903219],[107.0850226,-5.9905715],[107.0849197,-5.990667],[107.084883,-5.9907912],[107.0849407,-5.9909882],[107.0852101,-5.9912056],[107.0856579,-5.9914893],[107.0858535,-5.991608],[107.0870204,-5.9921506],[107.0871956,-5.9922546],[107.0875361,-5.992707],[107.0880101,-5.9932833],[107.0882271,-5.9939638],[107.0884506,-5.9945982],[107.0883829,-5.9953554],[107.0883656,-5.9963158],[107.0882309,-5.9965364],[107.0881417,-5.9966666],[107.0877324,-5.9973234],[107.0873851,-5.997884],[107.0867197,-5.9985034],[107.0861017,-5.9989569],[107.0855753,-5.9993818],[107.0851328,-5.9999097],[107.0847818,-6.0003331],[107.0846445,-6.0008185],[107.0845606,-6.0013034],[107.0845606,-6.0017316]]]}}]}