{"type":"FeatureCollection","properties":{"name":"Kecamatan Kabupaten Karawang","source":"GADM 4.1 level 3"},"features":[{"type":"Feature","properties":{"name":"Banyusari","kecamatan":"Banyusari"},"geometry":{"type":"MultiPolygon","coordinates":[[[[107.5707,-6.3329],[107.5728,-6.3326],[107.568,-6.3366],[107.5686,-6.3389],[107.5707,-6.3373],[107.5705,-6.341],[107.566,-6.346],[107.5491,-6.3406],[107.5432,-6.3296],[107.5288,-6.3271],[107.5236,-6.3286],[107.5253,-6.3224],[107.5222,-6.318],[107.5224,-6.312],[107.5151,-6.3123],[107.5054,-6.3155],[107.5052,-6.3137],[107.511,-6.3062],[107.5031,-6.3029],[107.5026,-6.3048],[107.4986,-6.3053],[107.4951,-6.3176],[107.4872,-6.3205],[107.4884,-6.3064],[107.4912,-6.3001],[107.4897,-6.2962],[107.4868,-6.2964],[107.4828,-6.2912],[107.4879,-6.2837],[107.5,-6.2857],[107.5012,-6.283],[107.5057,-6.2811],[107.5092,-6.2721],[107.5123,-6.2708],[107.5291,-6.2714],[107.5306,-6.2764],[107.5381,-6.272],[107.5555,-6.2752],[107.5592,-6.2781],[107.5675,-6.2801],[107.5684,-6.2787],[107.5714,-6.2791],[107.5713,-6.2847],[107.5819,-6.2864],[107.5823,-6.2885],[107.5846,-6.2893],[107.5861,-6.2947],[107.5847,-6.2985],[107.5802,-6.3006],[107.5788,-6.3066],[107.5813,-6.3066],[107.5799,-6.3088],[107.5827,-6.3122],[107.5799,-6.3137],[107.5789,-6.3227],[107.5756,-6.3274],[107.5763,-6.3284],[107.5716,-6.3304],[107.5707,-6.3329]]]]}},{"type":"Feature","properties":{"name":"Batujaya","kecamatan":"Batujaya"},"geometry":{"type":"MultiPolygon","coordinates":[[[[107.2366,-6.1044],[107.2301,-6.1026],[107.2216,-6.1039],[107.2117,-6.0997],[107.2026,-6.0935],[107.1903,-6.0899],[107.187,-6.0863],[107.1884,-6.0803],[107.1857,-6.0766],[107.1822,-6.0773],[107.177,-6.0817],[107.1719,-6.0759],[107.1596,-6.0677],[107.1568,-6.0679],[107.1516,-6.0728],[107.1433,-6.071],[107.1525,-6.0597],[107.154,-6.0483],[107.1573,-6.04],[107.1588,-6.0399],[107.1571,-6.0357],[107.1608,-6.0282],[107.1585,-6.0148],[107.162,-6.0087],[107.1616,-6.0055],[107.1697,-5.997],[107.169,-5.9902],[107.1703,-5.9875],[107.1847,-5.9883],[107.1871,-5.9904],[107.1867,-5.9954],[107.1908,-5.9969],[107.1932,-5.9952],[107.1957,-6.004],[107.2082,-6.0089],[107.214,-6.0148],[107.2158,-6.0192],[107.2151,-6.0241],[107.2174,-6.0354],[107.2132,-6.0528],[107.2216,-6.0579],[107.2222,-6.0622],[107.2186,-6.0687],[107.2187,-6.0715],[107.2246,-6.074],[107.2317,-6.0687],[107.2319,-6.066],[107.2353,-6.0653],[107.2361,-6.0602],[107.2386,-6.061],[107.2383,-6.0635],[107.244,-6.068],[107.2447,-6.0826],[107.2478,-6.086],[107.2488,-6.0991],[107.2535,-6.107],[107.2482,-6.1086],[107.2479,-6.1024],[107.2457,-6.1008],[107.2366,-6.1044]]]]}},{"type":"Feature","properties":{"name":"Ciampel","kecamatan":"Ciampel"},"geometry":{"type":"MultiPolygon","coordinates":[[[[107.372,-6.4716],[107.3729,-6.4748],[107.3811,-6.4812],[107.3822,-6.4882],[107.3892,-6.4912],[107.3903,-6.4998],[107.3775,-6.4972],[107.375,-6.4952],[107.3667,-6.4967],[107.3504,-6.4856],[107.3403,-6.4881],[107.3358,-6.4854],[107.3275,-6.4845],[107.3058,-6.491],[107.2987,-6.4965],[107.2947,-6.493],[107.2943,-6.4865],[107.2905,-6.4829],[107.2961,-6.481],[107.3006,-6.4531],[107.3045,-6.4452],[107.3069,-6.445],[107.3096,-6.4407],[107.3082,-6.4355],[107.3058,-6.4345],[107.3048,-6.4281],[107.2995,-6.4237],[107.2999,-6.4205],[107.2955,-6.42],[107.2876,-6.4221],[107.2833,-6.4202],[107.2815,-6.4173],[107.2788,-6.4186],[107.2763,-6.4151],[107.2772,-6.411],[107.2753,-6.4092],[107.2779,-6.4093],[107.2786,-6.4055],[107.2808,-6.4066],[107.2824,-6.4054],[107.2834,-6.3992],[107.2866,-6.3973],[107.2851,-6.3958],[107.2878,-6.3925],[107.2866,-6.3912],[107.2877,-6.3899],[107.2852,-6.3882],[107.2892,-6.3856],[107.2887,-6.3842],[107.292,-6.3842],[107.2953,-6.3815],[107.2952,-6.3762],[107.2986,-6.3748],[107.2988,-6.3717],[107.3021,-6.3698],[107.3061,-6.3571],[107.3112,-6.3605],[107.3123,-6.3582],[107.3159,-6.3574],[107.3186,-6.3592],[107.3191,-6.3573],[107.3216,-6.3568],[107.3261,-6.3629],[107.3302,-6.3584],[107.3338,-6.3588],[107.3381,-6.3626],[107.3435,-6.3645],[107.3462,-6.3684],[107.3393,-6.3712],[107.3457,-6.3736],[107.3465,-6.3795],[107.3498,-6.3859],[107.354,-6.387],[107.3584,-6.3837],[107.3659,-6.3825],[107.3681,-6.3853],[107.3673,-6.3934],[107.3757,-6.3957],[107.3762,-6.4],[107.3714,-6.4009],[107.3667,-6.3999],[107.3619,-6.4021],[107.3594,-6.4066],[107.3616,-6.4117],[107.3665,-6.4112],[107.3736,-6.4168],[107.3756,-6.4312],[107.3782,-6.4378],[107.3788,-6.4509],[107.3763,-6.4546],[107.3728,-6.454],[107.3708,-6.4553],[107.3697,-6.4595],[107.3744,-6.465],[107.3789,-6.4644],[107.3804,-6.4661],[107.378,-6.468],[107.3732,-6.4683],[107.372,-6.4716]]]]}},{"type":"Feature","properties":{"name":"Cibuaya","kecamatan":"Cibuaya"},"geometry":{"type":"MultiPolygon","coordinates":[[[[107.3534,-6.0632],[107.3524,-6.0671],[107.3551,-6.0717],[107.3563,-6.0795],[107.3519,-6.0805],[107.3336,-6.0796],[107.3333,-6.0848],[107.3274,-6.1008],[107.3197,-6.0965],[107.3231,-6.0889],[107.3214,-6.0835],[107.3195,-6.0832],[107.3195,-6.0773],[107.3209,-6.0758],[107.3177,-6.0715],[107.3124,-6.0727],[107.3118,-6.0626],[107.3044,-6.0587],[107.3081,-6.0412],[107.2961,-6.0419],[107.2967,-6.0368],[107.2928,-6.0361],[107.2961,-6.0221],[107.2871,-6.0196],[107.2881,-6.0105],[107.2932,-5.9925],[107.2931,-5.9829],[107.2884,-5.9856],[107.2818,-5.9927],[107.2778,-5.9868],[107.2757,-5.9863],[107.2756,-5.984],[107.2707,-5.9803],[107.2706,-5.978],[107.269,-5.9802],[107.2672,-5.9795],[107.2659,-5.9824],[107.262,-5.9811],[107.2615,-5.9822],[107.2553,-5.9822],[107.2543,-5.9793],[107.2498,-5.9794],[107.2487,-5.9776],[107.2474,-5.9797],[107.2418,-5.9755],[107.2395,-5.9778],[107.2402,-5.974],[107.233,-5.9746],[107.2322,-5.9726],[107.2766,-5.9615],[107.2774,-5.96],[107.298,-5.9577],[107.3146,-5.9604],[107.3292,-5.9649],[107.3406,-5.9695],[107.3507,-5.9769],[107.3746,-6.0002],[107.3942,-6.0244],[107.3905,-6.0269],[107.3927,-6.0315],[107.3902,-6.0333],[107.3881,-6.0294],[107.3858,-6.0309],[107.3867,-6.0329],[107.3839,-6.0347],[107.3874,-6.0401],[107.3882,-6.0468],[107.3918,-6.0546],[107.3867,-6.0617],[107.3789,-6.059],[107.375,-6.0524],[107.3696,-6.0493],[107.3682,-6.0447],[107.3534,-6.0632]]]]}},{"type":"Feature","properties":{"name":"Cikampek","kecamatan":"Cikampek"},"geometry":{"type":"MultiPolygon","coordinates":[[[[107.4624,-6.4249],[107.4625,-6.4267],[107.4583,-6.4315],[107.4589,-6.4369],[107.4553,-6.4386],[107.4519,-6.4441],[107.4402,-6.446],[107.4371,-6.4483],[107.4348,-6.4529],[107.4257,-6.4443],[107.4233,-6.4394],[107.4258,-6.4348],[107.4221,-6.4354],[107.4227,-6.4324],[107.4204,-6.4297],[107.4147,-6.4267],[107.405,-6.4299],[107.4012,-6.4282],[107.401,-6.4255],[107.399,-6.4251],[107.4019,-6.4179],[107.4004,-6.4144],[107.4022,-6.4111],[107.4022,-6.4067],[107.4098,-6.4037],[107.4148,-6.4038],[107.4169,-6.4016],[107.4221,-6.391],[107.422,-6.387],[107.4259,-6.3878],[107.427,-6.3806],[107.4406,-6.3815],[107.4488,-6.3799],[107.456,-6.382],[107.455,-6.387],[107.4652,-6.3941],[107.4592,-6.4032],[107.4636,-6.4052],[107.4639,-6.4084],[107.4709,-6.4086],[107.4676,-6.4143],[107.4648,-6.415],[107.4631,-6.4179],[107.4597,-6.4179],[107.4621,-6.4199],[107.4624,-6.4249]]]]}},{"type":"Feature","properties":{"name":"Cilamaya Kulon","kecamatan":"Cilamaya Kulon"},"geometry":{"type":"MultiPolygon","coordinates":[[[[107.5208,-6.2704],[107.5099,-6.2715],[107.5057,-6.2811],[107.5012,-6.283],[107.5,-6.2857],[107.4879,-6.2837],[107.4875,-6.28],[107.4949,-6.2689],[107.4986,-6.2495],[107.4986,-6.2373],[107.4904,-6.2334],[107.4871,-6.2281],[107.485,-6.2274],[107.4875,-6.2177],[107.4851,-6.2095],[107.4874,-6.2033],[107.4826,-6.2028],[107.4828,-6.1989],[107.4765,-6.1968],[107.4776,-6.1923],[107.4752,-6.1885],[107.4755,-6.1864],[107.4791,-6.1858],[107.4828,-6.1769],[107.49,-6.1722],[107.4959,-6.1726],[107.4971,-6.1749],[107.4988,-6.175],[107.4999,-6.1771],[107.4986,-6.1822],[107.5039,-6.1816],[107.5085,-6.1773],[107.5122,-6.1638],[107.5295,-6.1738],[107.5407,-6.1782],[107.5513,-6.1802],[107.5473,-6.1835],[107.5452,-6.1949],[107.5528,-6.2032],[107.5503,-6.2065],[107.5514,-6.2085],[107.5504,-6.21],[107.5533,-6.2125],[107.5523,-6.2133],[107.5497,-6.2118],[107.5492,-6.2152],[107.5461,-6.2137],[107.5419,-6.2218],[107.5509,-6.2259],[107.5424,-6.2442],[107.5397,-6.2445],[107.538,-6.2474],[107.5365,-6.2544],[107.534,-6.2547],[107.532,-6.2609],[107.5279,-6.2635],[107.5275,-6.2704],[107.5208,-6.2704]]]]}},{"type":"Feature","properties":{"name":"Cilamaya Wetan","kecamatan":"Cilamaya Wetan"},"geometry":{"type":"MultiPolygon","coordinates":[[[[107.5729,-6.2857],[107.5713,-6.2847],[107.5714,-6.2791],[107.5684,-6.2787],[107.5675,-6.2801],[107.5592,-6.2781],[107.5555,-6.2752],[107.5381,-6.272],[107.5306,-6.2764],[107.5298,-6.2717],[107.5271,-6.2709],[107.5279,-6.2635],[107.532,-6.2609],[107.534,-6.2547],[107.5365,-6.2544],[107.538,-6.2474],[107.5397,-6.2445],[107.5424,-6.2442],[107.5509,-6.2259],[107.5419,-6.2218],[107.5461,-6.2137],[107.5492,-6.2152],[107.5497,-6.2118],[107.5523,-6.2133],[107.5533,-6.2125],[107.5504,-6.21],[107.5514,-6.2085],[107.5503,-6.2065],[107.5528,-6.2032],[107.5453,-6.1954],[107.5473,-6.1835],[107.5513,-6.1802],[107.564,-6.1816],[107.569,-6.1828],[107.5764,-6.188],[107.5879,-6.1903],[107.6124,-6.1908],[107.6207,-6.1882],[107.6244,-6.1892],[107.6281,-6.1993],[107.6343,-6.2084],[107.6435,-6.2149],[107.6412,-6.2166],[107.6399,-6.2146],[107.63,-6.2242],[107.6256,-6.2244],[107.6223,-6.2221],[107.6087,-6.2354],[107.6004,-6.2379],[107.6001,-6.241],[107.6026,-6.2427],[107.5994,-6.253],[107.5921,-6.2509],[107.5858,-6.2524],[107.5807,-6.2564],[107.5839,-6.2601],[107.5822,-6.2614],[107.5817,-6.2664],[107.5782,-6.268],[107.5798,-6.2713],[107.5789,-6.2804],[107.5819,-6.2864],[107.5729,-6.2857]]]]}},{"type":"Feature","properties":{"name":"Cilebar","kecamatan":"Cilebar"},"geometry":{"type":"MultiPolygon","coordinates":[[[[107.4157,-6.1733],[107.4134,-6.1717],[107.4127,-6.1731],[107.4028,-6.1729],[107.3939,-6.1793],[107.3956,-6.182],[107.3925,-6.1878],[107.3864,-6.1849],[107.3838,-6.1885],[107.3808,-6.1885],[107.3804,-6.1824],[107.383,-6.1751],[107.3817,-6.1559],[107.375,-6.1553],[107.3666,-6.1511],[107.3662,-6.1469],[107.3628,-6.1458],[107.3595,-6.1415],[107.3676,-6.1378],[107.3701,-6.1289],[107.3749,-6.1285],[107.375,-6.1308],[107.3803,-6.1303],[107.3864,-6.1328],[107.3917,-6.1221],[107.3895,-6.1158],[107.3977,-6.1156],[107.3998,-6.1103],[107.4072,-6.1083],[107.4071,-6.104],[107.4048,-6.1031],[107.4086,-6.0977],[107.3993,-6.0878],[107.3993,-6.0855],[107.4044,-6.0837],[107.408,-6.0797],[107.4033,-6.0764],[107.4078,-6.0711],[107.4178,-6.0643],[107.4333,-6.0908],[107.4446,-6.1018],[107.4578,-6.1311],[107.4511,-6.1376],[107.4414,-6.1414],[107.4415,-6.1522],[107.4388,-6.1594],[107.4404,-6.1663],[107.4289,-6.1766],[107.4224,-6.1885],[107.418,-6.1794],[107.4184,-6.1762],[107.4159,-6.1753],[107.4157,-6.1733]]]]}},{"type":"Feature","properties":{"name":"Jatisari","kecamatan":"Jatisari"},"geometry":{"type":"MultiPolygon","coordinates":[[[[107.5377,-6.3905],[107.5398,-6.3959],[107.5397,-6.4034],[107.5371,-6.405],[107.5349,-6.4149],[107.5324,-6.4149],[107.5311,-6.4181],[107.522,-6.4186],[107.527,-6.4083],[107.5247,-6.4083],[107.5206,-6.3969],[107.5116,-6.3966],[107.5094,-6.3911],[107.5048,-6.3884],[107.5079,-6.3847],[107.5064,-6.381],[107.5074,-6.3791],[107.5003,-6.3752],[107.4979,-6.3699],[107.4985,-6.361],[107.5,-6.3609],[107.5005,-6.3579],[107.4919,-6.349],[107.4849,-6.3373],[107.4872,-6.3205],[107.4951,-6.3176],[107.4986,-6.3053],[107.5026,-6.3048],[107.5031,-6.3029],[107.511,-6.3062],[107.5052,-6.3137],[107.5054,-6.3155],[107.5151,-6.3123],[107.5224,-6.312],[107.5222,-6.318],[107.5253,-6.3224],[107.5236,-6.3286],[107.5288,-6.3271],[107.5418,-6.3291],[107.5491,-6.3406],[107.5658,-6.3461],[107.5629,-6.35],[107.5654,-6.3527],[107.5622,-6.3551],[107.562,-6.3587],[107.5594,-6.3589],[107.5581,-6.3646],[107.5556,-6.365],[107.5547,-6.3626],[107.5533,-6.3635],[107.5534,-6.3658],[107.5486,-6.3713],[107.5495,-6.3739],[107.5483,-6.3795],[107.543,-6.3819],[107.5421,-6.3847],[107.5379,-6.3868],[107.5377,-6.3905]]]]}},{"type":"Feature","properties":{"name":"Jayakerta","kecamatan":"Jayakerta"},"geometry":{"type":"MultiPolygon","coordinates":[[[[107.3356,-6.1192],[107.3376,-6.1334],[107.3322,-6.1401],[107.3138,-6.1404],[107.3049,-6.1388],[107.3033,-6.1298],[107.3044,-6.1272],[107.3061,-6.1273],[107.3068,-6.1118],[107.2978,-6.1121],[107.2728,-6.1305],[107.2702,-6.1289],[107.2689,-6.1142],[107.2625,-6.111],[107.2515,-6.1162],[107.2485,-6.1161],[107.2482,-6.1086],[107.2548,-6.1075],[107.2726,-6.0724],[107.2798,-6.0699],[107.2834,-6.0703],[107.2823,-6.0793],[107.2832,-6.0837],[107.2863,-6.0873],[107.291,-6.079],[107.3049,-6.0765],[107.3094,-6.0734],[107.3177,-6.0715],[107.3209,-6.0758],[107.3195,-6.0773],[107.3195,-6.0832],[107.3214,-6.0835],[107.3231,-6.0889],[107.3197,-6.0965],[107.323,-6.0984],[107.3229,-6.1068],[107.335,-6.1138],[107.3356,-6.1192]]]]}},{"type":"Feature","properties":{"name":"Karawang Barat","kecamatan":"Karawang Barat"},"geometry":{"type":"MultiPolygon","coordinates":[[[[107.3134,-6.312],[107.3147,-6.3128],[107.3086,-6.3233],[107.3052,-6.3202],[107.2962,-6.3222],[107.3009,-6.3134],[107.2994,-6.3109],[107.2929,-6.3131],[107.2839,-6.3202],[107.278,-6.3198],[107.2747,-6.3171],[107.2751,-6.3124],[107.2797,-6.3095],[107.2826,-6.3098],[107.2863,-6.3126],[107.2895,-6.3095],[107.2864,-6.2954],[107.2833,-6.2935],[107.2775,-6.2941],[107.2819,-6.2891],[107.2747,-6.2876],[107.2766,-6.281],[107.2663,-6.2762],[107.2667,-6.2738],[107.2761,-6.267],[107.276,-6.2631],[107.2734,-6.2584],[107.2778,-6.2542],[107.2745,-6.2412],[107.2691,-6.232],[107.2744,-6.2336],[107.2821,-6.2289],[107.2836,-6.2255],[107.28,-6.2233],[107.282,-6.2207],[107.2965,-6.227],[107.2952,-6.2284],[107.2978,-6.2299],[107.3063,-6.2423],[107.302,-6.25],[107.3023,-6.2522],[107.3086,-6.2541],[107.3086,-6.2576],[107.3142,-6.2604],[107.3263,-6.262],[107.3251,-6.2836],[107.3224,-6.2896],[107.3238,-6.2995],[107.3124,-6.2898],[107.3077,-6.2978],[107.3081,-6.3044],[107.3134,-6.312]]]]}},{"type":"Feature","properties":{"name":"Karawang Timur","kecamatan":"Karawang Timur"},"geometry":{"type":"MultiPolygon","coordinates":[[[[107.3362,-6.3371],[107.3248,-6.3367],[107.3253,-6.3327],[107.321,-6.3296],[107.3206,-6.3257],[107.3144,-6.3282],[107.3086,-6.3233],[107.3147,-6.3128],[107.3081,-6.3044],[107.3077,-6.2978],[107.3124,-6.2898],[107.3234,-6.3002],[107.3239,-6.2993],[107.3224,-6.2896],[107.3251,-6.2836],[107.3263,-6.262],[107.3217,-6.2613],[107.323,-6.2535],[107.3269,-6.2536],[107.3291,-6.2514],[107.3344,-6.2583],[107.3364,-6.2569],[107.3415,-6.2606],[107.3459,-6.2606],[107.3523,-6.2695],[107.3535,-6.276],[107.3543,-6.2943],[107.3502,-6.2997],[107.3439,-6.2983],[107.3452,-6.2946],[107.3398,-6.2954],[107.3399,-6.2924],[107.3374,-6.2925],[107.3375,-6.2949],[107.3337,-6.2964],[107.3344,-6.3085],[107.3453,-6.3123],[107.3512,-6.318],[107.3488,-6.3192],[107.3481,-6.3223],[107.3425,-6.3228],[107.3424,-6.3247],[107.3441,-6.3271],[107.3481,-6.3267],[107.3472,-6.3343],[107.3525,-6.3355],[107.3502,-6.3435],[107.3459,-6.3474],[107.3362,-6.3371]]]]}},{"type":"Feature","properties":{"name":"Klari","kecamatan":"Klari"},"geometry":{"type":"MultiPolygon","coordinates":[[[[107.399,-6.4251],[107.401,-6.4255],[107.4012,-6.4282],[107.405,-6.4299],[107.415,-6.4267],[107.4211,-6.4302],[107.4227,-6.4324],[107.4221,-6.4354],[107.4258,-6.4348],[107.4233,-6.4394],[107.425,-6.4433],[107.4348,-6.4529],[107.4346,-6.4586],[107.385,-6.4691],[107.378,-6.468],[107.3802,-6.4667],[107.3798,-6.4648],[107.375,-6.4651],[107.3721,-6.4631],[107.3697,-6.4595],[107.3702,-6.4563],[107.3728,-6.454],[107.3763,-6.4546],[107.3789,-6.4503],[107.3783,-6.4384],[107.3756,-6.4312],[107.374,-6.418],[107.3678,-6.4118],[107.3616,-6.4117],[107.3594,-6.4066],[107.3619,-6.4021],[107.3667,-6.3999],[107.3714,-6.4009],[107.3762,-6.4],[107.3757,-6.3957],[107.3673,-6.3934],[107.3681,-6.3853],[107.3659,-6.3825],[107.3584,-6.3837],[107.354,-6.387],[107.3498,-6.3859],[107.3465,-6.3795],[107.3457,-6.3736],[107.3395,-6.3716],[107.3413,-6.3695],[107.3462,-6.3691],[107.3429,-6.3641],[107.3314,-6.3581],[107.3272,-6.3625],[107.3244,-6.3622],[107.323,-6.3574],[107.3271,-6.3488],[107.3248,-6.3367],[107.3366,-6.3371],[107.3459,-6.3474],[107.3502,-6.3435],[107.3525,-6.3355],[107.3652,-6.338],[107.371,-6.3352],[107.3818,-6.3355],[107.3812,-6.3234],[107.3917,-6.3227],[107.4001,-6.3257],[107.4045,-6.3253],[107.407,-6.3339],[107.3985,-6.3368],[107.3941,-6.3448],[107.3933,-6.3537],[107.3926,-6.3548],[107.3887,-6.3539],[107.3887,-6.3572],[107.3911,-6.3582],[107.3887,-6.3627],[107.389,-6.3678],[107.3922,-6.3707],[107.3926,-6.3741],[107.3864,-6.3898],[107.3899,-6.3924],[107.3904,-6.3995],[107.3956,-6.4093],[107.4017,-6.4161],[107.399,-6.4251]]]]}},{"type":"Feature","properties":{"name":"Kotabaru","kecamatan":"Kotabaru"},"geometry":{"type":"MultiPolygon","coordinates":[[[[107.4689,-6.4109],[107.4709,-6.4086],[107.4639,-6.4084],[107.4636,-6.4052],[107.4592,-6.4032],[107.4652,-6.3941],[107.455,-6.387],[107.456,-6.382],[107.47,-6.3788],[107.4713,-6.3731],[107.4735,-6.3711],[107.4726,-6.3644],[107.4882,-6.3608],[107.4985,-6.3608],[107.4985,-6.3717],[107.5007,-6.3755],[107.5074,-6.3791],[107.5064,-6.381],[107.5079,-6.3847],[107.5048,-6.3884],[107.5094,-6.3911],[107.5116,-6.3966],[107.5206,-6.3969],[107.5247,-6.4083],[107.527,-6.4083],[107.5246,-6.4123],[107.5253,-6.4139],[107.5225,-6.4159],[107.522,-6.4186],[107.5192,-6.4181],[107.5137,-6.4213],[107.5028,-6.408],[107.492,-6.4149],[107.4901,-6.4198],[107.4807,-6.4266],[107.4793,-6.4313],[107.4742,-6.4324],[107.4695,-6.4288],[107.4625,-6.4267],[107.4621,-6.4199],[107.4596,-6.419],[107.4676,-6.4143],[107.4689,-6.4109]]]]}},{"type":"Feature","properties":{"name":"Kutawaluya","kecamatan":"Kutawaluya"},"geometry":{"type":"MultiPolygon","coordinates":[[[[107.382,-6.1617],[107.383,-6.1751],[107.3804,-6.1824],[107.3808,-6.1885],[107.3711,-6.204],[107.3715,-6.2118],[107.3632,-6.2138],[107.3466,-6.2142],[107.3448,-6.2117],[107.3239,-6.2067],[107.3229,-6.2048],[107.3254,-6.2041],[107.3275,-6.1905],[107.3237,-6.1865],[107.3234,-6.1803],[107.3185,-6.1772],[107.3032,-6.1777],[107.3023,-6.1766],[107.3049,-6.1571],[107.3037,-6.1558],[107.3097,-6.1568],[107.3173,-6.1527],[107.3198,-6.1399],[107.3322,-6.1401],[107.3376,-6.1334],[107.3432,-6.1356],[107.3428,-6.14],[107.3601,-6.1417],[107.3628,-6.1458],[107.3662,-6.1469],[107.3666,-6.1511],[107.375,-6.1553],[107.3814,-6.1557],[107.382,-6.1617]]]]}},{"type":"Feature","properties":{"name":"Lemahabang","kecamatan":"Lemahabang"},"geometry":{"type":"MultiPolygon","coordinates":[[[[107.4486,-6.3243],[107.4495,-6.3306],[107.4457,-6.3349],[107.4269,-6.3378],[107.4276,-6.3302],[107.4191,-6.3299],[107.4167,-6.3342],[107.4077,-6.3343],[107.4036,-6.3252],[107.4131,-6.3055],[107.419,-6.3024],[107.4367,-6.3044],[107.4405,-6.2906],[107.4402,-6.2854],[107.4424,-6.282],[107.4415,-6.2786],[107.4426,-6.275],[107.4451,-6.2741],[107.4462,-6.2656],[107.4484,-6.2639],[107.4497,-6.2565],[107.4529,-6.2561],[107.4553,-6.2375],[107.4705,-6.2377],[107.4713,-6.2353],[107.4815,-6.2361],[107.4904,-6.2334],[107.4975,-6.2358],[107.4986,-6.2373],[107.4986,-6.2495],[107.4949,-6.2689],[107.4875,-6.28],[107.4882,-6.2825],[107.4857,-6.2879],[107.4838,-6.2913],[107.4651,-6.2921],[107.4627,-6.2986],[107.4556,-6.3011],[107.455,-6.3039],[107.4569,-6.3065],[107.4548,-6.3139],[107.4529,-6.3196],[107.4486,-6.3243]]]]}},{"type":"Feature","properties":{"name":"Majalaya","kecamatan":"Majalaya"},"geometry":{"type":"MultiPolygon","coordinates":[[[[107.3812,-6.3236],[107.3818,-6.3355],[107.371,-6.3352],[107.3652,-6.338],[107.3472,-6.3343],[107.3481,-6.3267],[107.3439,-6.327],[107.3425,-6.3228],[107.3481,-6.3223],[107.3488,-6.3192],[107.3512,-6.318],[107.3453,-6.3123],[107.3344,-6.3085],[107.3337,-6.2964],[107.3375,-6.2949],[107.3374,-6.2925],[107.3399,-6.2924],[107.3398,-6.2954],[107.3452,-6.2946],[107.3437,-6.2981],[107.3501,-6.2997],[107.354,-6.2952],[107.3535,-6.276],[107.3523,-6.2695],[107.3493,-6.266],[107.3559,-6.2661],[107.3561,-6.2643],[107.3596,-6.2647],[107.3599,-6.2661],[107.374,-6.2674],[107.3755,-6.2644],[107.379,-6.2632],[107.3762,-6.2733],[107.3781,-6.2802],[107.3755,-6.2952],[107.3769,-6.2974],[107.3754,-6.2995],[107.3771,-6.3038],[107.3842,-6.3079],[107.3833,-6.3051],[107.39,-6.3032],[107.3977,-6.308],[107.4054,-6.3074],[107.408,-6.3048],[107.4129,-6.305],[107.4036,-6.3252],[107.4001,-6.3257],[107.3917,-6.3227],[107.3812,-6.3236]]]]}},{"type":"Feature","properties":{"name":"Pakisjaya","kecamatan":"Pakisjaya"},"geometry":{"type":"MultiPolygon","coordinates":[[[[107.1261,-6.0461],[107.1217,-6.0471],[107.1191,-6.0396],[107.1133,-6.0388],[107.1113,-6.0289],[107.1051,-6.0288],[107.0993,-6.025],[107.0961,-6.0279],[107.0939,-6.0274],[107.095,-6.0221],[107.1016,-6.0162],[107.0997,-6.0145],[107.0936,-6.0143],[107.092,-6.0058],[107.0846,-6.0023],[107.0883,-5.9954],[107.0875,-5.9928],[107.0844,-5.9908],[107.0872,-5.9872],[107.0848,-5.985],[107.0878,-5.9853],[107.0899,-5.9834],[107.0876,-5.9823],[107.0886,-5.9801],[107.0856,-5.9793],[107.09,-5.9764],[107.0885,-5.9756],[107.091,-5.9727],[107.0896,-5.9684],[107.0971,-5.9613],[107.0936,-5.9575],[107.1004,-5.9362],[107.1109,-5.9539],[107.1329,-5.9768],[107.1516,-5.9851],[107.1652,-5.988],[107.1703,-5.9875],[107.169,-5.9902],[107.1697,-5.997],[107.1616,-6.0055],[107.162,-6.0087],[107.1585,-6.0148],[107.1608,-6.0282],[107.1571,-6.0357],[107.1588,-6.0399],[107.1573,-6.04],[107.154,-6.0483],[107.1525,-6.0597],[107.1433,-6.071],[107.1404,-6.0636],[107.1405,-6.0572],[107.1389,-6.0573],[107.1344,-6.0635],[107.1303,-6.0615],[107.1327,-6.0557],[107.1368,-6.0556],[107.1362,-6.0496],[107.1274,-6.0547],[107.1243,-6.0512],[107.1278,-6.0474],[107.1261,-6.0461]]]]}},{"type":"Feature","properties":{"name":"Pangkalan","kecamatan":"Pangkalan"},"geometry":{"type":"MultiPolygon","coordinates":[[[[107.1904,-6.566],[107.1896,-6.5616],[107.186,-6.5608],[107.1843,-6.5556],[107.1787,-6.552],[107.1765,-6.533],[107.1745,-6.5327],[107.1752,-6.5295],[107.1713,-6.5232],[107.1693,-6.5228],[107.1685,-6.5172],[107.1664,-6.5161],[107.1676,-6.5115],[107.1649,-6.5113],[107.1642,-6.502],[107.1666,-6.4972],[107.1701,-6.4966],[107.1697,-6.4923],[107.1744,-6.4906],[107.1738,-6.4844],[107.1715,-6.4805],[107.1756,-6.4789],[107.1783,-6.4797],[107.1809,-6.4779],[107.181,-6.4748],[107.1784,-6.4739],[107.1828,-6.4735],[107.1818,-6.4678],[107.1853,-6.4671],[107.1857,-6.4691],[107.1836,-6.471],[107.1857,-6.4716],[107.1892,-6.4697],[107.1896,-6.4639],[107.1953,-6.4639],[107.1954,-6.4611],[107.1986,-6.4619],[107.1997,-6.4607],[107.2089,-6.4686],[107.2132,-6.4645],[107.215,-6.4645],[107.2168,-6.4616],[107.2127,-6.455],[107.2054,-6.4519],[107.2079,-6.4493],[107.2111,-6.4525],[107.2117,-6.4493],[107.207,-6.4411],[107.202,-6.4361],[107.2067,-6.4349],[107.2037,-6.4261],[107.1977,-6.4249],[107.1963,-6.4233],[107.1973,-6.4219],[107.2038,-6.4235],[107.2054,-6.4217],[107.202,-6.4139],[107.2122,-6.4172],[107.2126,-6.4096],[107.2173,-6.4077],[107.2212,-6.4084],[107.222,-6.4025],[107.2272,-6.4109],[107.2358,-6.4107],[107.2391,-6.4152],[107.2541,-6.4129],[107.2557,-6.4119],[107.2552,-6.4101],[107.2636,-6.4145],[107.2762,-6.4117],[107.2763,-6.4151],[107.2786,-6.4185],[107.2815,-6.4173],[107.2833,-6.4202],[107.2876,-6.4221],[107.2955,-6.42],[107.2999,-6.4205],[107.2995,-6.4237],[107.3048,-6.4281],[107.3058,-6.4345],[107.3082,-6.4355],[107.3096,-6.441],[107.3069,-6.445],[107.3045,-6.4452],[107.3007,-6.4537],[107.2964,-6.4517],[107.2799,-6.4558],[107.2747,-6.4585],[107.2687,-6.4574],[107.2628,-6.4623],[107.2535,-6.4613],[107.2487,-6.457],[107.2468,-6.4572],[107.2468,-6.4635],[107.2421,-6.4656],[107.2429,-6.4674],[107.2442,-6.4666],[107.2448,-6.4684],[107.2466,-6.4685],[107.2461,-6.4724],[107.2429,-6.4741],[107.2443,-6.4755],[107.2425,-6.479],[107.2385,-6.4802],[107.2392,-6.4843],[107.2372,-6.4851],[107.238,-6.4865],[107.2358,-6.4871],[107.2353,-6.4896],[107.2279,-6.489],[107.2272,-6.4919],[107.2254,-6.4923],[107.2231,-6.4973],[107.225,-6.5023],[107.223,-6.5034],[107.2226,-6.5079],[107.2159,-6.5126],[107.2107,-6.5138],[107.2089,-6.51],[107.2095,-6.5072],[107.2082,-6.5066],[107.206,-6.5093],[107.2049,-6.5151],[107.2028,-6.5169],[107.1952,-6.5154],[107.191,-6.5164],[107.1892,-6.5146],[107.1878,-6.5161],[107.1851,-6.5205],[107.1882,-6.5223],[107.1857,-6.5287],[107.1923,-6.5367],[107.1856,-6.5468],[107.1965,-6.5618],[107.1906,-6.5679],[107.1904,-6.566]]]]}},{"type":"Feature","properties":{"name":"Pedes","kecamatan":"Pedes"},"geometry":{"type":"MultiPolygon","coordinates":[[[[107.3372,-6.1299],[107.3352,-6.1141],[107.3229,-6.1068],[107.323,-6.0984],[107.3274,-6.1008],[107.3333,-6.0848],[107.3336,-6.0796],[107.3519,-6.0805],[107.3563,-6.0795],[107.3551,-6.0717],[107.3524,-6.0671],[107.3536,-6.0626],[107.3682,-6.0447],[107.3696,-6.0493],[107.375,-6.0524],[107.3789,-6.059],[107.3867,-6.0617],[107.3918,-6.0546],[107.3882,-6.0468],[107.3874,-6.0401],[107.3839,-6.0347],[107.3867,-6.0329],[107.3858,-6.0309],[107.3881,-6.0294],[107.3902,-6.0333],[107.3927,-6.0315],[107.3905,-6.0269],[107.3942,-6.0244],[107.4025,-6.036],[107.4168,-6.0645],[107.4087,-6.0702],[107.4033,-6.0764],[107.408,-6.0797],[107.4063,-6.0819],[107.3993,-6.0855],[107.3993,-6.0878],[107.4086,-6.0977],[107.4048,-6.1031],[107.4071,-6.104],[107.4072,-6.1083],[107.3998,-6.1103],[107.3977,-6.1156],[107.3895,-6.1158],[107.3917,-6.1221],[107.3864,-6.1328],[107.3803,-6.1303],[107.375,-6.1308],[107.3749,-6.1285],[107.3701,-6.1289],[107.3676,-6.1378],[107.3595,-6.1415],[107.3427,-6.1399],[107.3433,-6.1357],[107.3376,-6.1334],[107.3372,-6.1299]]]]}},{"type":"Feature","properties":{"name":"Purwasari","kecamatan":"Purwasari"},"geometry":{"type":"MultiPolygon","coordinates":[[[[107.422,-6.3875],[107.4221,-6.391],[107.4179,-6.4005],[107.4148,-6.4038],[107.4098,-6.4037],[107.4022,-6.4067],[107.4022,-6.4111],[107.4004,-6.4144],[107.3913,-6.4018],[107.3896,-6.3919],[107.3864,-6.3903],[107.3926,-6.3741],[107.3922,-6.3707],[107.389,-6.3678],[107.3887,-6.3627],[107.3911,-6.3582],[107.3887,-6.3572],[107.3887,-6.3539],[107.3926,-6.3548],[107.3933,-6.3537],[107.3941,-6.3448],[107.3977,-6.3377],[107.407,-6.3339],[107.4167,-6.3342],[107.4188,-6.3315],[107.4182,-6.3301],[107.4215,-6.3297],[107.428,-6.3308],[107.4274,-6.3373],[107.4221,-6.3407],[107.4211,-6.3435],[107.4229,-6.3463],[107.4341,-6.3472],[107.4345,-6.3487],[107.4325,-6.351],[107.4307,-6.3509],[107.4282,-6.3546],[107.4311,-6.3611],[107.4358,-6.365],[107.436,-6.368],[107.4342,-6.3721],[107.4289,-6.3731],[107.4309,-6.381],[107.427,-6.3806],[107.4259,-6.3878],[107.422,-6.3875]]]]}},{"type":"Feature","properties":{"name":"Rawamerta","kecamatan":"Rawamerta"},"geometry":{"type":"MultiPolygon","coordinates":[[[[107.3161,-6.2607],[107.3086,-6.2576],[107.3084,-6.254],[107.3022,-6.252],[107.3063,-6.2423],[107.2978,-6.2299],[107.3081,-6.2301],[107.3088,-6.2266],[107.3146,-6.2249],[107.3157,-6.2201],[107.3239,-6.2187],[107.3311,-6.2144],[107.3325,-6.208],[107.3448,-6.2117],[107.3466,-6.2142],[107.3622,-6.2139],[107.3711,-6.2121],[107.3709,-6.2044],[107.379,-6.19],[107.3838,-6.1885],[107.3864,-6.1849],[107.3925,-6.1878],[107.3903,-6.191],[107.388,-6.2075],[107.3901,-6.2168],[107.3852,-6.2246],[107.3849,-6.2274],[107.388,-6.2281],[107.3914,-6.241],[107.3892,-6.2433],[107.3872,-6.2501],[107.3808,-6.2529],[107.3813,-6.2569],[107.379,-6.2632],[107.3755,-6.2644],[107.374,-6.2674],[107.3599,-6.2661],[107.3596,-6.2647],[107.3561,-6.2643],[107.3559,-6.2661],[107.3493,-6.266],[107.3459,-6.2606],[107.3415,-6.2606],[107.3364,-6.2569],[107.3344,-6.2583],[107.3315,-6.2557],[107.3298,-6.2514],[107.3269,-6.2536],[107.323,-6.2535],[107.3218,-6.2611],[107.3161,-6.2607]]]]}},{"type":"Feature","properties":{"name":"Rengasdengklok","kecamatan":"Rengasdengklok"},"geometry":{"type":"MultiPolygon","coordinates":[[[[107.2958,-6.2278],[107.2965,-6.227],[107.2935,-6.2249],[107.282,-6.2207],[107.28,-6.2233],[107.2756,-6.2228],[107.2721,-6.2184],[107.2725,-6.2163],[107.2755,-6.2155],[107.289,-6.2175],[107.2917,-6.2166],[107.294,-6.2066],[107.2966,-6.2029],[107.296,-6.2013],[107.2908,-6.2006],[107.2921,-6.1901],[107.2862,-6.1839],[107.286,-6.1753],[107.2794,-6.1711],[107.2786,-6.162],[107.2812,-6.1573],[107.2885,-6.1563],[107.2892,-6.1493],[107.2927,-6.1414],[107.291,-6.1405],[107.289,-6.1419],[107.2858,-6.1487],[107.2817,-6.1473],[107.281,-6.1448],[107.2838,-6.136],[107.2797,-6.1339],[107.2814,-6.1283],[107.2792,-6.1269],[107.2821,-6.1226],[107.2978,-6.1121],[107.3068,-6.1118],[107.3061,-6.1273],[107.3044,-6.1272],[107.3033,-6.1298],[107.3049,-6.1388],[107.3198,-6.1399],[107.3173,-6.1527],[107.3097,-6.1568],[107.3037,-6.1558],[107.3049,-6.1571],[107.3023,-6.1766],[107.3032,-6.1777],[107.3185,-6.1772],[107.3234,-6.1803],[107.3237,-6.1865],[107.3275,-6.1905],[107.3254,-6.2041],[107.3229,-6.2056],[107.3325,-6.208],[107.332,-6.2135],[107.325,-6.2183],[107.3157,-6.2201],[107.3146,-6.2249],[107.3088,-6.2266],[107.3081,-6.2301],[107.2978,-6.2299],[107.2958,-6.2278]]]]}},{"type":"Feature","properties":{"name":"Talagasari","kecamatan":"Talagasari"},"geometry":{"type":"MultiPolygon","coordinates":[[[[107.4189,-6.3033],[107.4142,-6.3056],[107.4099,-6.3045],[107.4054,-6.3074],[107.3977,-6.308],[107.39,-6.3032],[107.3833,-6.3051],[107.3842,-6.3079],[107.3762,-6.3026],[107.3754,-6.2995],[107.3769,-6.2974],[107.3756,-6.2934],[107.3781,-6.2802],[107.3762,-6.2729],[107.3813,-6.2569],[107.3806,-6.2533],[107.3873,-6.25],[107.3892,-6.2433],[107.3914,-6.241],[107.3909,-6.2368],[107.393,-6.2369],[107.394,-6.2432],[107.4016,-6.247],[107.4063,-6.2461],[107.4113,-6.2478],[107.4189,-6.2393],[107.424,-6.2425],[107.4316,-6.2407],[107.4314,-6.2354],[107.4336,-6.2293],[107.4477,-6.2292],[107.4486,-6.2372],[107.4553,-6.2375],[107.4556,-6.2394],[107.4538,-6.2431],[107.4529,-6.2561],[107.4497,-6.2565],[107.4484,-6.2639],[107.4462,-6.2656],[107.4451,-6.2741],[107.4427,-6.2747],[107.4415,-6.2786],[107.4424,-6.282],[107.4402,-6.2854],[107.4405,-6.2906],[107.4372,-6.2995],[107.438,-6.3008],[107.4362,-6.3045],[107.4328,-6.3046],[107.4307,-6.3028],[107.4189,-6.3033]]]]}},{"type":"Feature","properties":{"name":"Tegalwaru","kecamatan":"Tegalwaru"},"geometry":{"type":"MultiPolygon","coordinates":[[[[107.1928,-6.5772],[107.1906,-6.5679],[107.1965,-6.5618],[107.1856,-6.5468],[107.1923,-6.5367],[107.1857,-6.5287],[107.1882,-6.5223],[107.1851,-6.5205],[107.1881,-6.5156],[107.1892,-6.5146],[107.191,-6.5164],[107.1952,-6.5154],[107.2028,-6.5169],[107.2049,-6.5151],[107.206,-6.5093],[107.2082,-6.5066],[107.2095,-6.5072],[107.2089,-6.51],[107.2107,-6.5138],[107.2159,-6.5126],[107.2226,-6.5079],[107.223,-6.5034],[107.225,-6.5023],[107.2231,-6.4973],[107.2254,-6.4923],[107.2272,-6.4919],[107.2279,-6.489],[107.2353,-6.4896],[107.2358,-6.4871],[107.238,-6.4865],[107.2372,-6.4851],[107.2392,-6.4843],[107.2385,-6.4802],[107.2425,-6.479],[107.2443,-6.4755],[107.2429,-6.4741],[107.2461,-6.4724],[107.2466,-6.4685],[107.2448,-6.4684],[107.2442,-6.4666],[107.2429,-6.4674],[107.2421,-6.4656],[107.2468,-6.4635],[107.2468,-6.4572],[107.2487,-6.457],[107.2535,-6.4613],[107.2628,-6.4623],[107.2687,-6.4574],[107.2747,-6.4585],[107.2881,-6.4534],[107.299,-6.4518],[107.3007,-6.4537],[107.3008,-6.4579],[107.296,-6.4756],[107.2961,-6.481],[107.2904,-6.4833],[107.2943,-6.4865],[107.2947,-6.493],[107.2982,-6.4966],[107.2891,-6.5017],[107.289,-6.5044],[107.2855,-6.5048],[107.2861,-6.5086],[107.2845,-6.5105],[107.2855,-6.5115],[107.2843,-6.5157],[107.286,-6.5222],[107.2839,-6.5299],[107.2778,-6.5353],[107.2726,-6.536],[107.2672,-6.5464],[107.265,-6.5553],[107.256,-6.5622],[107.2504,-6.5734],[107.236,-6.5772],[107.2238,-6.5857],[107.2205,-6.5907],[107.2135,-6.5905],[107.2051,-6.587],[107.1928,-6.5772]]]]}},{"type":"Feature","properties":{"name":"Telukjambe Barat","kecamatan":"Telukjambe Barat"},"geometry":{"type":"MultiPolygon","coordinates":[[[[107.2221,-6.4008],[107.2199,-6.3967],[107.2215,-6.3853],[107.2186,-6.3833],[107.2193,-6.3808],[107.2144,-6.3796],[107.2128,-6.3745],[107.2105,-6.3796],[107.2048,-6.3757],[107.2055,-6.3692],[107.2104,-6.3659],[107.2075,-6.3615],[107.2107,-6.3613],[107.2132,-6.3638],[107.2153,-6.3618],[107.2131,-6.3567],[107.215,-6.3499],[107.223,-6.3519],[107.2266,-6.3492],[107.2236,-6.3354],[107.2206,-6.3345],[107.2187,-6.3311],[107.2147,-6.33],[107.2191,-6.326],[107.2186,-6.3214],[107.2247,-6.3206],[107.2231,-6.3184],[107.2186,-6.3183],[107.2174,-6.3151],[107.2199,-6.3131],[107.2218,-6.3166],[107.2239,-6.3163],[107.2246,-6.3102],[107.2276,-6.3093],[107.2242,-6.3078],[107.2238,-6.3061],[107.2294,-6.3022],[107.233,-6.3037],[107.2331,-6.299],[107.2351,-6.3007],[107.2355,-6.3071],[107.2385,-6.3061],[107.2393,-6.3037],[107.2365,-6.2967],[107.242,-6.2967],[107.2462,-6.2995],[107.2487,-6.2933],[107.2549,-6.2949],[107.2551,-6.2905],[107.2611,-6.2861],[107.2643,-6.2858],[107.2652,-6.2898],[107.263,-6.2901],[107.2634,-6.2928],[107.2603,-6.2987],[107.2609,-6.3033],[107.2624,-6.306],[107.268,-6.3085],[107.2673,-6.3236],[107.2749,-6.326],[107.2721,-6.3328],[107.2745,-6.3413],[107.2725,-6.3414],[107.2732,-6.3469],[107.2691,-6.3578],[107.2741,-6.364],[107.2731,-6.367],[107.2774,-6.3712],[107.2741,-6.3774],[107.2753,-6.3822],[107.2736,-6.3889],[107.2742,-6.3936],[107.2713,-6.3998],[107.2727,-6.4065],[107.2772,-6.4111],[107.2636,-6.4145],[107.2552,-6.4101],[107.2557,-6.4119],[107.2541,-6.4129],[107.2391,-6.4152],[107.2358,-6.4107],[107.2293,-6.4114],[107.2261,-6.41],[107.2227,-6.4049],[107.2221,-6.4008]]]]}},{"type":"Feature","properties":{"name":"Telukjambe Timur","kecamatan":"Telukjambe Timur"},"geometry":{"type":"MultiPolygon","coordinates":[[[[107.2862,-6.3869],[107.285,-6.3886],[107.2877,-6.3899],[107.2866,-6.3912],[107.2878,-6.3925],[107.2851,-6.3958],[107.2867,-6.3971],[107.2834,-6.3992],[107.2824,-6.4054],[107.2808,-6.4066],[107.2786,-6.4055],[107.2779,-6.4093],[107.2754,-6.409],[107.2727,-6.4065],[107.2713,-6.3998],[107.2742,-6.3936],[107.2736,-6.3889],[107.2753,-6.3822],[107.2741,-6.3774],[107.2774,-6.3712],[107.2731,-6.367],[107.2741,-6.364],[107.2691,-6.3578],[107.2732,-6.3469],[107.2725,-6.3414],[107.2745,-6.3413],[107.2721,-6.3328],[107.2749,-6.326],[107.2673,-6.3236],[107.268,-6.3085],[107.2624,-6.306],[107.2603,-6.2993],[107.2634,-6.2928],[107.263,-6.2901],[107.2652,-6.2897],[107.262,-6.2815],[107.264,-6.2801],[107.2656,-6.2842],[107.2673,-6.2841],[107.2678,-6.2801],[107.2654,-6.2788],[107.2663,-6.2762],[107.2766,-6.281],[107.2747,-6.2876],[107.2818,-6.2886],[107.2776,-6.2943],[107.2842,-6.2938],[107.2878,-6.2988],[107.2891,-6.3108],[107.2857,-6.3126],[107.2803,-6.3094],[107.2759,-6.3115],[107.2744,-6.3144],[107.2758,-6.3186],[107.2839,-6.3202],[107.2929,-6.3131],[107.2994,-6.3109],[107.3009,-6.3134],[107.2962,-6.3222],[107.3056,-6.3203],[107.3144,-6.3282],[107.3203,-6.3256],[107.321,-6.3296],[107.3254,-6.3331],[107.3246,-6.3399],[107.327,-6.3496],[107.3229,-6.3579],[107.3191,-6.3573],[107.3193,-6.3587],[107.3177,-6.3592],[107.3155,-6.3573],[107.3123,-6.3582],[107.3112,-6.3605],[107.3061,-6.3571],[107.3021,-6.3698],[107.2988,-6.3717],[107.2986,-6.3748],[107.2952,-6.3762],[107.2953,-6.3815],[107.292,-6.3842],[107.2902,-6.3833],[107.2882,-6.3866],[107.2862,-6.3869]]]]}},{"type":"Feature","properties":{"name":"Tempuran","kecamatan":"Tempuran"},"geometry":{"type":"MultiPolygon","coordinates":[[[[107.4457,-6.2292],[107.4336,-6.2293],[107.4314,-6.2354],[107.4316,-6.2407],[107.424,-6.2425],[107.4189,-6.2393],[107.4109,-6.2479],[107.4063,-6.2461],[107.4016,-6.247],[107.394,-6.2432],[107.393,-6.2369],[107.3896,-6.2351],[107.388,-6.2281],[107.3849,-6.2274],[107.3852,-6.2246],[107.3901,-6.2168],[107.3882,-6.2061],[107.3903,-6.191],[107.3956,-6.182],[107.3939,-6.1793],[107.4033,-6.1727],[107.4127,-6.1731],[107.4138,-6.1718],[107.4159,-6.1753],[107.4184,-6.1762],[107.418,-6.1794],[107.4224,-6.1885],[107.4289,-6.1766],[107.4404,-6.1663],[107.4388,-6.1594],[107.4415,-6.1522],[107.4414,-6.1414],[107.4511,-6.1376],[107.4578,-6.1311],[107.4665,-6.143],[107.4793,-6.1525],[107.4891,-6.157],[107.4907,-6.1561],[107.5098,-6.1627],[107.5122,-6.1638],[107.5122,-6.1655],[107.5082,-6.1779],[107.5028,-6.1823],[107.4986,-6.1822],[107.4999,-6.1771],[107.4959,-6.1726],[107.49,-6.1722],[107.4828,-6.1769],[107.479,-6.186],[107.4753,-6.1868],[107.4756,-6.1904],[107.4776,-6.1925],[107.4765,-6.1968],[107.4828,-6.1989],[107.4826,-6.2028],[107.4874,-6.2033],[107.4851,-6.2095],[107.4875,-6.2177],[107.485,-6.2272],[107.4871,-6.2281],[107.49,-6.2339],[107.4808,-6.2361],[107.4713,-6.2353],[107.47,-6.2377],[107.4489,-6.2373],[107.4482,-6.2299],[107.4457,-6.2292]]]]}},{"type":"Feature","properties":{"name":"Tirtajaya","kecamatan":"Tirtajaya"},"geometry":{"type":"MultiPolygon","coordinates":[[[[107.2527,-6.1042],[107.2488,-6.0991],[107.2478,-6.086],[107.2447,-6.0826],[107.244,-6.068],[107.2383,-6.0635],[107.2386,-6.061],[107.2361,-6.0602],[107.2353,-6.0653],[107.2319,-6.066],[107.2317,-6.0687],[107.2246,-6.074],[107.2187,-6.0715],[107.2186,-6.0687],[107.2222,-6.0622],[107.2216,-6.0579],[107.2132,-6.0528],[107.2174,-6.0354],[107.2151,-6.0241],[107.2158,-6.0192],[107.214,-6.0148],[107.2082,-6.0089],[107.1957,-6.004],[107.1932,-5.9952],[107.1908,-5.9969],[107.1865,-5.9951],[107.1871,-5.9904],[107.1847,-5.9883],[107.2045,-5.9821],[107.2053,-5.98],[107.2028,-5.9798],[107.2034,-5.9788],[107.2322,-5.9726],[107.233,-5.9746],[107.2402,-5.974],[107.2395,-5.9778],[107.2418,-5.9755],[107.2474,-5.9797],[107.2487,-5.9776],[107.2498,-5.9794],[107.2543,-5.9793],[107.2553,-5.9822],[107.2615,-5.9822],[107.262,-5.9811],[107.2659,-5.9824],[107.2672,-5.9795],[107.269,-5.9802],[107.2706,-5.978],[107.2707,-5.9803],[107.2756,-5.984],[107.2757,-5.9863],[107.2778,-5.9868],[107.2818,-5.9927],[107.2884,-5.9856],[107.2931,-5.9829],[107.2932,-5.9925],[107.2881,-6.0105],[107.2871,-6.0196],[107.2961,-6.0221],[107.2928,-6.0361],[107.2967,-6.0368],[107.2961,-6.0419],[107.3081,-6.0412],[107.3044,-6.0587],[107.3118,-6.0626],[107.3124,-6.0727],[107.3049,-6.0765],[107.291,-6.079],[107.2863,-6.0873],[107.2832,-6.0837],[107.2823,-6.0793],[107.2834,-6.0703],[107.2798,-6.0699],[107.2726,-6.0724],[107.2541,-6.1081],[107.2527,-6.1042]]]]}},{"type":"Feature","properties":{"name":"Tirtamulya","kecamatan":"Tirtamulya"},"geometry":{"type":"MultiPolygon","coordinates":[[[[107.4509,-6.3805],[107.4309,-6.381],[107.4289,-6.3731],[107.4342,-6.3721],[107.4359,-6.3651],[107.4311,-6.3611],[107.4283,-6.3543],[107.4345,-6.3487],[107.4341,-6.3472],[107.4229,-6.3463],[107.421,-6.3426],[107.4258,-6.3381],[107.4392,-6.335],[107.4446,-6.3354],[107.4491,-6.3315],[107.4478,-6.3252],[107.4529,-6.3196],[107.4548,-6.3139],[107.4569,-6.3065],[107.455,-6.3039],[107.4556,-6.3011],[107.4627,-6.2986],[107.4651,-6.2921],[107.4828,-6.2912],[107.4868,-6.2964],[107.4897,-6.2962],[107.4912,-6.3001],[107.4884,-6.3064],[107.4849,-6.3373],[107.4919,-6.349],[107.5005,-6.3579],[107.5,-6.3609],[107.4899,-6.3606],[107.4726,-6.3644],[107.4735,-6.3711],[107.4713,-6.3731],[107.47,-6.3788],[107.4564,-6.382],[107.4509,-6.3805]]]]}}]}